{"type":"FeatureCollection","features":[{"type":"Feature","properties":{"code":"04","nom":"Alpes-de-Haute-Provence"},"geometry":{"type":"Polygon","coordinates":[[[5.67604,44.19143],[5.67817,44.19051],[5.68195,44.18969],[5.68395,44.18962],[5.68602,44.18875],[5.68857,44.18836],[5.69209,44.18648],[5.69321,44.18868],[5.69802,44.18981],[5.70289,44.19041],[5.70366,44.19187],[5.70819,44.19303],[5.712,44.19485],[5.71177,44.19586],[5.71258,44.19806],[5.71391,44.19927],[5.72209,44.19956],[5.7223,44.19999],[5.72722,44.20083],[5.72918,44.20013],[5.73362,44.20014],[5.73673,44.20077],[5.74013,44.20214],[5.74433,44.20337],[5.747,44.20524],[5.74804,44.20786],[5.75107,44.20935],[5.75549,44.21021],[5.76323,44.20858],[5.76834,44.20689],[5.77113,44.2065],[5.77388,44.20551],[5.77651,44.20553],[5.78022,44.2068],[5.78419,44.20935],[5.78819,44.21031],[5.79172,44.21169],[5.7933,44.21303],[5.79539,44.21346],[5.81392,44.21025],[5.81484,44.20976],[5.82857,44.20067],[5.83323,44.19988],[5.83806,44.2001],[5.84507,44.19992],[5.85412,44.19631],[5.85567,44.19623],[5.86213,44.19422],[5.86357,44.19427],[5.86716,44.19343],[5.87797,44.1931],[5.88341,44.19307],[5.88758,44.19375],[5.8894,44.1927],[5.89043,44.19011],[5.90201,44.19106],[5.90551,44.19098],[5.90931,44.19047],[5.91319,44.1979],[5.91474,44.20343],[5.91093,44.2056],[5.90793,44.20658],[5.90521,44.20633],[5.9033,44.20665],[5.89497,44.20712],[5.88363,44.21037],[5.88179,44.211],[5.87643,44.21436],[5.87378,44.21819],[5.87293,44.22195],[5.87202,44.22778],[5.87028,44.22996],[5.86794,44.23179],[5.86495,44.2331],[5.86104,44.23569],[5.86089,44.23845],[5.86126,44.24155],[5.86002,44.24509],[5.85183,44.24837],[5.84575,44.25157],[5.84003,44.2536],[5.83794,44.2551],[5.83556,44.25737],[5.83384,44.25789],[5.82832,44.26097],[5.82666,44.26251],[5.82677,44.26407],[5.8257,44.26653],[5.82302,44.2701],[5.82272,44.27552],[5.82391,44.2789],[5.82509,44.27959],[5.82874,44.28421],[5.83419,44.28909],[5.83688,44.29229],[5.83707,44.29557],[5.83613,44.29754],[5.84395,44.29942],[5.84758,44.30129],[5.85231,44.29984],[5.85404,44.29834],[5.85609,44.29797],[5.85665,44.29696],[5.85871,44.29766],[5.86044,44.29625],[5.86509,44.29544],[5.86655,44.29584],[5.86865,44.2951],[5.87045,44.29375],[5.87411,44.29196],[5.87733,44.28929],[5.87661,44.28472],[5.8758,44.28258],[5.87502,44.27689],[5.87769,44.27527],[5.87832,44.27336],[5.88013,44.27101],[5.88368,44.26855],[5.90757,44.25322],[5.90915,44.25236],[5.91319,44.24871],[5.92183,44.24841],[5.92151,44.25049],[5.91994,44.25332],[5.9197,44.25482],[5.9205,44.2575],[5.92437,44.26153],[5.92503,44.26398],[5.92461,44.26651],[5.92372,44.26709],[5.92059,44.26754],[5.91556,44.26716],[5.913,44.26832],[5.91232,44.27153],[5.91241,44.27307],[5.9136,44.27609],[5.91664,44.27985],[5.91614,44.28291],[5.91299,44.28688],[5.91273,44.28873],[5.91367,44.28969],[5.91664,44.29113],[5.92312,44.29147],[5.92643,44.29322],[5.92714,44.29485],[5.92699,44.2963],[5.92331,44.30084],[5.92353,44.30244],[5.92525,44.30587],[5.92559,44.30855],[5.92477,44.3125],[5.92481,44.31498],[5.92194,44.31565],[5.91797,44.31433],[5.91612,44.31241],[5.91376,44.31104],[5.9118,44.31075],[5.90877,44.31152],[5.90406,44.31342],[5.90009,44.31426],[5.89844,44.31571],[5.8961,44.31862],[5.89619,44.32006],[5.8975,44.32218],[5.89903,44.32371],[5.90302,44.32638],[5.90443,44.32692],[5.90554,44.32851],[5.90538,44.33014],[5.90335,44.3338],[5.90283,44.33562],[5.90325,44.33741],[5.90435,44.33791],[5.90858,44.33837],[5.91368,44.3373],[5.91751,44.3385],[5.91983,44.34067],[5.92227,44.34681],[5.92422,44.34891],[5.92737,44.35012],[5.93071,44.35245],[5.93736,44.35936],[5.93828,44.3623],[5.94104,44.36631],[5.94072,44.36934],[5.94136,44.37266],[5.94471,44.37805],[5.94645,44.38289],[5.94938,44.38677],[5.95208,44.39272],[5.95354,44.39502],[5.95707,44.39738],[5.96229,44.39938],[5.96735,44.40192],[5.97274,44.40391],[5.97738,44.40688],[5.97831,44.40843],[5.98097,44.40983],[5.98761,44.41057],[5.99214,44.41168],[5.99562,44.41215],[5.99955,44.41464],[6.00558,44.41679],[6.00967,44.41751],[6.01442,44.41737],[6.0184,44.41854],[6.02037,44.42006],[6.0228,44.42359],[6.02368,44.42571],[6.02452,44.43209],[6.02631,44.43464],[6.033,44.43695],[6.03764,44.43877],[6.04109,44.4406],[6.04406,44.44182],[6.05491,44.44732],[6.05563,44.44797],[6.05696,44.45198],[6.05944,44.45212],[6.0595,44.45111],[6.06226,44.45049],[6.0616,44.44872],[6.05993,44.44615],[6.0623,44.44505],[6.0663,44.44447],[6.06882,44.44259],[6.07371,44.4404],[6.07565,44.43845],[6.07649,44.44464],[6.07379,44.44675],[6.0726,44.44986],[6.07114,44.45054],[6.07244,44.45208],[6.07405,44.45273],[6.07669,44.45562],[6.07809,44.45873],[6.07943,44.4602],[6.08122,44.46099],[6.08284,44.46326],[6.0812,44.46791],[6.07686,44.46929],[6.07883,44.47251],[6.07969,44.47553],[6.08091,44.47658],[6.08376,44.47777],[6.08658,44.4781],[6.0899,44.47782],[6.09773,44.47539],[6.10175,44.47203],[6.10412,44.4724],[6.10547,44.47405],[6.10717,44.47508],[6.10972,44.47553],[6.11602,44.47547],[6.11857,44.47425],[6.11975,44.47196],[6.12139,44.47119],[6.12409,44.46907],[6.12636,44.46814],[6.13108,44.46825],[6.13449,44.46729],[6.14004,44.46647],[6.14063,44.46599],[6.1457,44.46457],[6.14796,44.46312],[6.15062,44.46245],[6.15562,44.46196],[6.15616,44.45522],[6.15606,44.44783],[6.15625,44.4421],[6.15922,44.44034],[6.15865,44.43932],[6.15983,44.43716],[6.15988,44.43504],[6.16178,44.43431],[6.16396,44.435],[6.16667,44.43514],[6.16907,44.43622],[6.16999,44.43759],[6.17357,44.43954],[6.17502,44.43878],[6.17473,44.43716],[6.17824,44.43403],[6.18037,44.43395],[6.18064,44.43232],[6.18221,44.43231],[6.18225,44.4301],[6.18297,44.42941],[6.18376,44.42524],[6.18457,44.42327],[6.18703,44.42229],[6.18967,44.42225],[6.19093,44.42049],[6.19255,44.42007],[6.19415,44.4188],[6.19554,44.41903],[6.19759,44.41761],[6.1979,44.41648],[6.20003,44.41451],[6.20196,44.41418],[6.20343,44.41264],[6.2036,44.41029],[6.20516,44.4092],[6.20639,44.40709],[6.20845,44.40589],[6.20972,44.40409],[6.21266,44.40228],[6.21232,44.40093],[6.21393,44.40064],[6.21522,44.3977],[6.2173,44.39701],[6.21856,44.39365],[6.22008,44.39279],[6.22104,44.38997],[6.22196,44.38863],[6.22151,44.38729],[6.22478,44.38586],[6.22506,44.38425],[6.22654,44.38225],[6.22822,44.3817],[6.22967,44.3826],[6.23329,44.38339],[6.23372,44.38413],[6.23723,44.38397],[6.23834,44.38457],[6.24201,44.38511],[6.24327,44.38773],[6.24819,44.38909],[6.24753,44.3924],[6.24975,44.39472],[6.25143,44.39542],[6.25141,44.39777],[6.25429,44.40141],[6.25698,44.40312],[6.25767,44.40427],[6.25853,44.4086],[6.26011,44.41058],[6.26249,44.41225],[6.26144,44.41351],[6.26098,44.41627],[6.26145,44.41748],[6.25971,44.41956],[6.26009,44.42067],[6.25927,44.42341],[6.25546,44.42677],[6.25404,44.42894],[6.25425,44.43024],[6.25245,44.43143],[6.25305,44.43406],[6.25032,44.43448],[6.24818,44.43739],[6.24802,44.43955],[6.24709,44.44081],[6.24717,44.44292],[6.24431,44.44541],[6.24413,44.4465],[6.24247,44.44791],[6.24026,44.44775],[6.23988,44.44951],[6.23866,44.4501],[6.2371,44.45331],[6.23733,44.45668],[6.237,44.45939],[6.23614,44.46144],[6.23277,44.46287],[6.23488,44.46442],[6.2376,44.46464],[6.24034,44.46405],[6.24329,44.46418],[6.248,44.46587],[6.25035,44.46623],[6.26283,44.4655],[6.26594,44.46602],[6.26751,44.46683],[6.26883,44.47164],[6.28602,44.4775],[6.29087,44.4794],[6.29349,44.48093],[6.29611,44.47761],[6.2978,44.47498],[6.29895,44.47417],[6.30162,44.47358],[6.30656,44.47125],[6.31186,44.46692],[6.31892,44.4651],[6.3249,44.46336],[6.32711,44.46346],[6.32767,44.46534],[6.3261,44.46633],[6.32659,44.4679],[6.33136,44.46963],[6.33451,44.4705],[6.33874,44.47072],[6.3387,44.47476],[6.33964,44.47668],[6.33975,44.47915],[6.34054,44.48165],[6.34104,44.48798],[6.34494,44.49352],[6.3472,44.49619],[6.34827,44.49809],[6.3444,44.50215],[6.3409,44.50349],[6.33697,44.50605],[6.3324,44.51],[6.33482,44.5114],[6.34456,44.5139],[6.3477,44.51545],[6.35121,44.51894],[6.35731,44.52264],[6.35983,44.52261],[6.362,44.52207],[6.36544,44.51899],[6.36854,44.51279],[6.37014,44.51039],[6.37367,44.50851],[6.37687,44.50754],[6.38397,44.50179],[6.38605,44.49992],[6.38511,44.49924],[6.3878,44.49796],[6.39881,44.49416],[6.39757,44.49182],[6.40093,44.48939],[6.4025,44.48745],[6.40451,44.48575],[6.40612,44.48353],[6.40831,44.48134],[6.40826,44.47985],[6.40719,44.477],[6.40869,44.47515],[6.41002,44.47263],[6.41206,44.47012],[6.41482,44.46907],[6.41781,44.46892],[6.42152,44.46771],[6.42365,44.46764],[6.42804,44.47018],[6.43064,44.4704],[6.43254,44.47147],[6.435,44.47508],[6.43614,44.47359],[6.43911,44.4719],[6.44335,44.46865],[6.44347,44.46761],[6.44516,44.46566],[6.44879,44.46538],[6.45007,44.46566],[6.45647,44.46557],[6.45777,44.46619],[6.45912,44.46555],[6.46054,44.46258],[6.46416,44.46123],[6.46466,44.45993],[6.46519,44.45515],[6.46668,44.45397],[6.46856,44.45129],[6.47135,44.45155],[6.47422,44.45118],[6.47808,44.45249],[6.47947,44.45261],[6.48203,44.45401],[6.48541,44.45295],[6.48929,44.45262],[6.49227,44.4513],[6.49539,44.45096],[6.49794,44.44879],[6.50117,44.44912],[6.50431,44.45059],[6.50917,44.45086],[6.51131,44.44984],[6.51427,44.4491],[6.51666,44.4491],[6.51959,44.44796],[6.52432,44.44806],[6.52751,44.44871],[6.53064,44.45022],[6.53328,44.45197],[6.5363,44.45208],[6.54055,44.4508],[6.54313,44.44814],[6.54737,44.44676],[6.55149,44.44715],[6.55465,44.44659],[6.5563,44.44585],[6.56244,44.44549],[6.56654,44.44642],[6.57053,44.44691],[6.57309,44.44663],[6.57808,44.4487],[6.57962,44.44739],[6.58519,44.44605],[6.58975,44.44562],[6.59286,44.44689],[6.59589,44.44697],[6.5989,44.44871],[6.60165,44.44833],[6.60429,44.44841],[6.60746,44.44617],[6.61061,44.44624],[6.61223,44.4468],[6.6157,44.44704],[6.6182,44.4468],[6.6232,44.4473],[6.62606,44.4467],[6.62823,44.44715],[6.6323,44.44692],[6.63283,44.44982],[6.63259,44.45267],[6.63412,44.4564],[6.63595,44.45637],[6.63675,44.45878],[6.63569,44.46152],[6.63684,44.46255],[6.63651,44.465],[6.63533,44.46613],[6.63696,44.46855],[6.63811,44.46877],[6.63968,44.47223],[6.63746,44.47456],[6.63765,44.47622],[6.63879,44.47894],[6.64116,44.48118],[6.64238,44.48321],[6.64167,44.48554],[6.64365,44.48776],[6.64893,44.48946],[6.65069,44.49088],[6.65193,44.49407],[6.65386,44.49477],[6.65851,44.49459],[6.6616,44.49547],[6.66315,44.49789],[6.6685,44.5003],[6.67037,44.50357],[6.67294,44.50681],[6.67296,44.50951],[6.6722,44.5122],[6.67328,44.514],[6.67426,44.51685],[6.67783,44.52005],[6.6788,44.52047],[6.67977,44.5225],[6.68091,44.52769],[6.68331,44.53119],[6.6816,44.53398],[6.68123,44.53639],[6.68193,44.53891],[6.68101,44.53941],[6.68092,44.54103],[6.68615,44.5415],[6.69261,44.54108],[6.69563,44.54024],[6.69814,44.54014],[6.70115,44.539],[6.70419,44.53915],[6.71125,44.54114],[6.71469,44.54321],[6.71595,44.54478],[6.72002,44.54707],[6.7222,44.54761],[6.72444,44.54887],[6.72541,44.5501],[6.7293,44.5532],[6.7311,44.55205],[6.73316,44.55174],[6.73718,44.55254],[6.7418,44.55511],[6.74286,44.55835],[6.74799,44.56045],[6.74991,44.56327],[6.74925,44.56473],[6.74933,44.56649],[6.75154,44.56906],[6.75221,44.57048],[6.75471,44.57111],[6.75991,44.57397],[6.76252,44.57333],[6.76456,44.5737],[6.76858,44.57355],[6.77183,44.57576],[6.77255,44.58024],[6.77161,44.58114],[6.76836,44.58234],[6.7692,44.5833],[6.7672,44.58532],[6.76694,44.58695],[6.769,44.58823],[6.77392,44.58903],[6.77683,44.59008],[6.77923,44.59193],[6.78172,44.59477],[6.78568,44.59451],[6.79206,44.59229],[6.79423,44.59418],[6.79596,44.59705],[6.7964,44.60109],[6.79941,44.60354],[6.80122,44.60434],[6.80524,44.60391],[6.80715,44.60154],[6.80891,44.60138],[6.81092,44.60219],[6.8133,44.60436],[6.81479,44.60497],[6.81897,44.60764],[6.82443,44.60888],[6.83051,44.60995],[6.83537,44.60931],[6.83708,44.60938],[6.8398,44.60859],[6.84336,44.60899],[6.8451,44.61037],[6.84808,44.61133],[6.84982,44.61262],[6.8539,44.61476],[6.85328,44.61821],[6.85401,44.62214],[6.85383,44.62372],[6.85512,44.62489],[6.85836,44.62611],[6.85842,44.62941],[6.86285,44.62933],[6.86714,44.62789],[6.87126,44.62813],[6.87463,44.62922],[6.87781,44.62954],[6.87881,44.63018],[6.88094,44.62995],[6.88262,44.63044],[6.88257,44.63148],[6.88379,44.63336],[6.88577,44.63523],[6.89004,44.63583],[6.89139,44.63703],[6.89112,44.63839],[6.89324,44.64133],[6.89777,44.64417],[6.90059,44.64505],[6.9016,44.64722],[6.90534,44.6523],[6.90756,44.65337],[6.9076,44.65639],[6.91133,44.65715],[6.9156,44.66],[6.91796,44.65883],[6.91983,44.65844],[6.92062,44.65723],[6.9237,44.65544],[6.93031,44.65518],[6.9335,44.65325],[6.93603,44.65337],[6.9396,44.65205],[6.94351,44.65353],[6.94834,44.65482],[6.94769,44.65368],[6.948,44.65222],[6.95145,44.64865],[6.95194,44.64611],[6.95366,44.64384],[6.95368,44.64153],[6.95306,44.63845],[6.95375,44.63703],[6.9556,44.63551],[6.96081,44.62944],[6.96234,44.62658],[6.96831,44.62472],[6.96741,44.62205],[6.96837,44.6198],[6.96583,44.61878],[6.96381,44.61882],[6.95958,44.62115],[6.9549,44.62094],[6.95299,44.62006],[6.94926,44.61918],[6.94838,44.61745],[6.94897,44.61455],[6.95039,44.61336],[6.95031,44.61004],[6.94596,44.60597],[6.94342,44.60571],[6.94105,44.6045],[6.93768,44.60338],[6.93683,44.60129],[6.93825,44.59921],[6.93761,44.59847],[6.93375,44.59686],[6.93273,44.59271],[6.93329,44.59169],[6.93364,44.58654],[6.93474,44.58609],[6.93236,44.58376],[6.93127,44.5819],[6.93199,44.57985],[6.93309,44.57944],[6.93279,44.57801],[6.93351,44.57595],[6.93287,44.57337],[6.932,44.57272],[6.92784,44.5719],[6.92256,44.57054],[6.92014,44.56937],[6.91657,44.5696],[6.91358,44.56927],[6.91317,44.56559],[6.91412,44.56343],[6.91592,44.5621],[6.91622,44.56038],[6.91498,44.55884],[6.91321,44.55883],[6.90731,44.55753],[6.90477,44.55646],[6.90192,44.55391],[6.89863,44.55536],[6.89473,44.55546],[6.89175,44.55449],[6.89038,44.55234],[6.88385,44.55183],[6.88183,44.5525],[6.88025,44.55414],[6.87856,44.55434],[6.87688,44.55297],[6.87606,44.55061],[6.87706,44.54873],[6.87681,44.54629],[6.8745,44.54648],[6.87236,44.54566],[6.87184,44.54321],[6.86995,44.53917],[6.86984,44.53684],[6.86534,44.53571],[6.86404,44.53594],[6.86277,44.53496],[6.85933,44.5346],[6.8579,44.53402],[6.85554,44.53186],[6.85523,44.52965],[6.8534,44.52881],[6.85512,44.52651],[6.85741,44.52259],[6.85721,44.51832],[6.85644,44.51663],[6.85703,44.51368],[6.85847,44.51272],[6.8594,44.50981],[6.85816,44.50698],[6.85996,44.50572],[6.86123,44.50342],[6.85967,44.50279],[6.8615,44.50139],[6.86185,44.50006],[6.86446,44.49875],[6.86567,44.495],[6.86816,44.49288],[6.87063,44.49165],[6.87103,44.49078],[6.87684,44.48871],[6.87742,44.48652],[6.87699,44.48414],[6.87591,44.48248],[6.87737,44.48079],[6.88071,44.47927],[6.88234,44.47677],[6.88601,44.47545],[6.89165,44.47189],[6.89497,44.47158],[6.8973,44.47082],[6.90086,44.47048],[6.90618,44.46766],[6.90781,44.46259],[6.90767,44.46084],[6.90949,44.45842],[6.91154,44.45487],[6.91184,44.45301],[6.91107,44.45214],[6.91278,44.45049],[6.91505,44.44906],[6.91751,44.44828],[6.92097,44.44571],[6.92511,44.44487],[6.9255,44.44427],[6.92882,44.44314],[6.93253,44.44151],[6.93331,44.44026],[6.93637,44.43992],[6.93889,44.43688],[6.93936,44.43385],[6.94197,44.43279],[6.94415,44.43248],[6.94484,44.43164],[6.94809,44.4297],[6.94608,44.42727],[6.94368,44.42803],[6.9393,44.42839],[6.93708,44.4297],[6.93331,44.42975],[6.93255,44.42727],[6.93332,44.42508],[6.93116,44.42403],[6.92886,44.42422],[6.92643,44.42372],[6.92475,44.42235],[6.922,44.4235],[6.92053,44.42553],[6.91796,44.4274],[6.9153,44.42638],[6.90288,44.42045],[6.89946,44.42218],[6.89747,44.42087],[6.89287,44.42078],[6.89265,44.42034],[6.89363,44.41431],[6.89432,44.41288],[6.89409,44.40978],[6.89704,44.40723],[6.89765,44.4055],[6.89724,44.40411],[6.89475,44.40214],[6.89452,44.39751],[6.89618,44.39613],[6.8968,44.39444],[6.89551,44.3925],[6.89559,44.39097],[6.89478,44.38862],[6.89547,44.38764],[6.89598,44.38451],[6.89493,44.38072],[6.89562,44.3774],[6.89685,44.37559],[6.89623,44.37252],[6.89518,44.37016],[6.89245,44.36824],[6.89025,44.36819],[6.88837,44.36737],[6.88695,44.36526],[6.88743,44.36105],[6.88252,44.35836],[6.88129,44.35706],[6.87753,44.35474],[6.87513,44.35374],[6.87154,44.3528],[6.86857,44.35012],[6.86296,44.34656],[6.86084,44.34601],[6.85962,44.34417],[6.85615,44.34295],[6.85486,44.34346],[6.8519,44.34582],[6.85024,44.34606],[6.84569,44.34562],[6.84328,44.34648],[6.84027,44.34646],[6.83802,44.34484],[6.83772,44.34341],[6.8315,44.3401],[6.83021,44.33789],[6.82714,44.33652],[6.82664,44.33559],[6.8224,44.33265],[6.82017,44.33216],[6.81462,44.33205],[6.81247,44.33263],[6.80892,44.33052],[6.80786,44.32899],[6.80753,44.32724],[6.80613,44.3259],[6.80717,44.3214],[6.7989,44.31852],[6.79924,44.31796],[6.79609,44.31611],[6.79478,44.31287],[6.79508,44.31024],[6.79456,44.30823],[6.79572,44.30535],[6.79623,44.30203],[6.79613,44.29831],[6.79142,44.29577],[6.79008,44.29461],[6.78827,44.29153],[6.78649,44.28948],[6.78655,44.28795],[6.78838,44.28549],[6.78833,44.2822],[6.78907,44.27999],[6.78846,44.27894],[6.78867,44.27587],[6.78988,44.2747],[6.79034,44.27234],[6.78658,44.27311],[6.78228,44.27518],[6.77863,44.27595],[6.77732,44.27681],[6.77312,44.27783],[6.76962,44.27702],[6.76661,44.27872],[6.76353,44.2796],[6.75992,44.27649],[6.75833,44.27436],[6.75878,44.2713],[6.75736,44.26996],[6.75731,44.26777],[6.75844,44.26511],[6.75909,44.26206],[6.75742,44.26163],[6.75499,44.26015],[6.75266,44.25996],[6.74981,44.26125],[6.74838,44.25976],[6.74229,44.25879],[6.74137,44.25824],[6.73929,44.25557],[6.73823,44.25317],[6.73528,44.2523],[6.72996,44.25147],[6.72828,44.25256],[6.72399,44.24984],[6.72436,44.24708],[6.72551,44.24568],[6.72583,44.24234],[6.72381,44.23967],[6.72351,44.23733],[6.72168,44.23452],[6.72201,44.23315],[6.72436,44.23275],[6.72576,44.2304],[6.72487,44.22867],[6.72502,44.22628],[6.72293,44.22523],[6.71831,44.22198],[6.71823,44.22028],[6.71408,44.21823],[6.71458,44.21587],[6.71663,44.21461],[6.71834,44.21071],[6.7176,44.20818],[6.71667,44.20754],[6.71607,44.20521],[6.71335,44.20491],[6.71184,44.20325],[6.70639,44.20144],[6.70523,44.19765],[6.70494,44.19541],[6.70306,44.19382],[6.70102,44.19327],[6.69808,44.18982],[6.69846,44.18845],[6.70281,44.18441],[6.70205,44.18173],[6.70191,44.17831],[6.69935,44.17566],[6.69385,44.1734],[6.69229,44.17336],[6.69107,44.17147],[6.68929,44.17086],[6.68813,44.16946],[6.68654,44.16925],[6.68713,44.16716],[6.68823,44.16581],[6.69326,44.16106],[6.6968,44.15877],[6.69824,44.15736],[6.69995,44.15662],[6.69932,44.15416],[6.69825,44.15232],[6.69923,44.15125],[6.69804,44.14939],[6.69972,44.14829],[6.70203,44.14753],[6.70459,44.1449],[6.70729,44.14436],[6.70788,44.14207],[6.7045,44.14032],[6.70469,44.13774],[6.70431,44.13595],[6.7053,44.13168],[6.70722,44.12967],[6.70694,44.12765],[6.70759,44.12447],[6.71148,44.1213],[6.71675,44.12051],[6.7186,44.1194],[6.71999,44.1171],[6.71999,44.11615],[6.72314,44.11216],[6.72566,44.10998],[6.72946,44.10794],[6.73203,44.10469],[6.73609,44.10313],[6.73714,44.10125],[6.7403,44.0991],[6.74346,44.09542],[6.74353,44.09357],[6.74484,44.09104],[6.74761,44.08804],[6.74982,44.08661],[6.7494,44.08522],[6.75237,44.08145],[6.75402,44.08023],[6.75648,44.07959],[6.75529,44.07861],[6.75339,44.07498],[6.75202,44.07156],[6.75056,44.06896],[6.75025,44.06712],[6.74763,44.06479],[6.748,44.05806],[6.74567,44.05112],[6.74593,44.04858],[6.74545,44.04631],[6.74569,44.04283],[6.74711,44.04093],[6.75138,44.03887],[6.75498,44.0367],[6.76097,44.03156],[6.76469,44.03037],[6.76672,44.02926],[6.76975,44.02702],[6.7762,44.0238],[6.78205,44.02289],[6.78351,44.02216],[6.78873,44.02344],[6.78958,44.02089],[6.78933,44.0199],[6.79212,44.01795],[6.79585,44.00702],[6.79798,44.00533],[6.8021,44.00381],[6.8033,44.00385],[6.80433,44.00259],[6.80731,44.00247],[6.80777,44.00101],[6.81027,44.00045],[6.81097,43.99939],[6.81495,43.99838],[6.81822,43.99865],[6.82044,43.9965],[6.82284,43.99542],[6.82428,43.9955],[6.82884,43.99226],[6.83088,43.99218],[6.83459,43.99126],[6.83873,43.9897],[6.83761,43.98923],[6.83638,43.98723],[6.83471,43.98329],[6.83739,43.98074],[6.84003,43.9801],[6.84113,43.97901],[6.84569,43.97825],[6.84455,43.97644],[6.84469,43.9741],[6.84623,43.97237],[6.84745,43.97182],[6.8471,43.96873],[6.84807,43.96522],[6.84703,43.96314],[6.84735,43.96074],[6.84708,43.95896],[6.84784,43.9558],[6.84762,43.95438],[6.85527,43.95502],[6.87079,43.95407],[6.87293,43.95324],[6.87547,43.95282],[6.87604,43.94978],[6.87443,43.9483],[6.87569,43.94524],[6.87794,43.94374],[6.88018,43.94024],[6.87987,43.93966],[6.88186,43.93792],[6.88432,43.93502],[6.88767,43.93308],[6.89555,43.92763],[6.89829,43.92685],[6.90017,43.92681],[6.90359,43.92762],[6.90808,43.92911],[6.91182,43.92842],[6.91326,43.92777],[6.91423,43.924],[6.91644,43.92292],[6.91849,43.92279],[6.91979,43.92021],[6.92147,43.92019],[6.92509,43.91607],[6.92506,43.91495],[6.92877,43.91219],[6.92939,43.90955],[6.93196,43.90823],[6.93653,43.90755],[6.93911,43.90627],[6.94048,43.90463],[6.94273,43.9031],[6.94284,43.90062],[6.94395,43.8995],[6.94175,43.89697],[6.93882,43.89695],[6.93297,43.89471],[6.92916,43.89451],[6.92197,43.8934],[6.91868,43.89357],[6.91529,43.89326],[6.90725,43.89327],[6.90429,43.89284],[6.90218,43.89298],[6.89818,43.89214],[6.89259,43.88997],[6.88461,43.88912],[6.88266,43.89208],[6.88036,43.89453],[6.8787,43.89567],[6.87662,43.8986],[6.8713,43.90156],[6.87018,43.90173],[6.86858,43.9035],[6.86585,43.90406],[6.86584,43.90582],[6.86458,43.90683],[6.86277,43.90672],[6.85778,43.90746],[6.85605,43.90861],[6.85419,43.90706],[6.85248,43.90902],[6.85342,43.91249],[6.85327,43.91467],[6.85111,43.91412],[6.84711,43.91388],[6.84258,43.91586],[6.83679,43.91573],[6.83338,43.91541],[6.83229,43.91846],[6.82995,43.91836],[6.82691,43.91712],[6.82493,43.91689],[6.82232,43.91587],[6.81798,43.91539],[6.81484,43.91348],[6.80968,43.91193],[6.80494,43.91112],[6.80365,43.91054],[6.80106,43.911],[6.79859,43.90966],[6.79883,43.90789],[6.80034,43.90591],[6.79663,43.90231],[6.7958,43.902],[6.79459,43.8998],[6.79328,43.89855],[6.79196,43.89837],[6.78997,43.89687],[6.78969,43.89486],[6.78776,43.8908],[6.78371,43.88572],[6.78262,43.88524],[6.78162,43.88355],[6.77902,43.88369],[6.77579,43.88076],[6.77288,43.8792],[6.76975,43.87819],[6.76293,43.87707],[6.75792,43.87667],[6.75617,43.87481],[6.75315,43.8728],[6.74839,43.87168],[6.74556,43.87211],[6.74406,43.87284],[6.73543,43.87426],[6.73183,43.87516],[6.72637,43.87717],[6.7181,43.87898],[6.71206,43.88079],[6.70629,43.88192],[6.70227,43.88234],[6.6991,43.88327],[6.69245,43.88434],[6.68933,43.88455],[6.68507,43.88571],[6.67999,43.88626],[6.67573,43.88766],[6.67325,43.888],[6.67157,43.88734],[6.67279,43.88315],[6.67398,43.88158],[6.67792,43.87912],[6.68063,43.8786],[6.68405,43.8789],[6.68813,43.87888],[6.68971,43.87764],[6.69152,43.87796],[6.69434,43.87695],[6.69622,43.8755],[6.69732,43.87365],[6.69843,43.87],[6.69746,43.86859],[6.69708,43.86457],[6.6982,43.86271],[6.69819,43.8591],[6.69903,43.85768],[6.70051,43.85672],[6.70283,43.85604],[6.70027,43.8551],[6.69705,43.8554],[6.69498,43.85436],[6.69192,43.85449],[6.68832,43.85301],[6.68489,43.85326],[6.67823,43.85195],[6.67647,43.84722],[6.67148,43.8421],[6.67096,43.83919],[6.66938,43.83555],[6.66791,43.83061],[6.67194,43.8305],[6.67503,43.83102],[6.68204,43.82976],[6.69094,43.82644],[6.69345,43.8258],[6.69778,43.82541],[6.7028,43.82423],[6.70472,43.82141],[6.70981,43.81882],[6.71152,43.81663],[6.71201,43.81486],[6.71136,43.81353],[6.70968,43.81202],[6.70983,43.81066],[6.70606,43.80841],[6.69912,43.80724],[6.69261,43.80573],[6.69133,43.80426],[6.68715,43.80347],[6.68136,43.80346],[6.67702,43.80196],[6.67363,43.80228],[6.67154,43.8019],[6.66997,43.80088],[6.65432,43.79782],[6.65263,43.79758],[6.65162,43.79657],[6.64643,43.79618],[6.6444,43.79564],[6.64152,43.79547],[6.64009,43.79359],[6.64043,43.7924],[6.63851,43.79166],[6.63596,43.78996],[6.6364,43.78895],[6.63427,43.78894],[6.63111,43.78996],[6.62793,43.79157],[6.62733,43.79537],[6.62554,43.79734],[6.62327,43.79846],[6.62421,43.80135],[6.62372,43.80475],[6.61931,43.80577],[6.61626,43.80508],[6.6112,43.8054],[6.60839,43.80375],[6.6058,43.80304],[6.6023,43.80294],[6.59347,43.8048],[6.58691,43.80532],[6.58532,43.80051],[6.58118,43.79815],[6.58021,43.79687],[6.57764,43.79494],[6.57519,43.79377],[6.57238,43.79157],[6.5672,43.79141],[6.5654,43.78981],[6.56289,43.78684],[6.56066,43.78607],[6.55995,43.78483],[6.55796,43.78397],[6.55486,43.78412],[6.55271,43.78276],[6.54987,43.78034],[6.55035,43.77885],[6.54816,43.77682],[6.54568,43.7753],[6.54215,43.7755],[6.54176,43.77831],[6.54438,43.78082],[6.54484,43.78192],[6.54671,43.78307],[6.54601,43.78557],[6.5437,43.78643],[6.54337,43.79058],[6.54241,43.79188],[6.53728,43.79675],[6.53489,43.79811],[6.53381,43.7996],[6.531,43.80131],[6.52986,43.8028],[6.52476,43.80637],[6.52107,43.80781],[6.51728,43.80876],[6.51739,43.80678],[6.51258,43.80285],[6.51136,43.80249],[6.50944,43.80072],[6.50514,43.79979],[6.49779,43.79605],[6.49375,43.79349],[6.49109,43.79363],[6.48841,43.79284],[6.4869,43.79171],[6.48208,43.79107],[6.48081,43.7927],[6.47974,43.79252],[6.47743,43.79584],[6.47491,43.79815],[6.47329,43.79703],[6.47078,43.79699],[6.46986,43.79873],[6.46836,43.79789],[6.46682,43.79799],[6.46047,43.79366],[6.45683,43.79313],[6.45483,43.79364],[6.45079,43.79389],[6.44803,43.79358],[6.44529,43.7945],[6.44425,43.79638],[6.44171,43.79664],[6.43881,43.79775],[6.4389,43.79368],[6.43826,43.79254],[6.43653,43.79183],[6.43439,43.79236],[6.43284,43.79161],[6.43069,43.7919],[6.42779,43.79048],[6.42352,43.78973],[6.41801,43.79119],[6.41443,43.79159],[6.41418,43.79061],[6.41295,43.77813],[6.41215,43.77559],[6.41101,43.77427],[6.41009,43.77188],[6.41338,43.76721],[6.4137,43.76282],[6.41335,43.76023],[6.40941,43.75893],[6.40665,43.75682],[6.40756,43.75557],[6.40681,43.75208],[6.40264,43.75277],[6.39738,43.74863],[6.39559,43.74788],[6.39399,43.74532],[6.39203,43.74314],[6.39128,43.74115],[6.38887,43.73866],[6.38528,43.73703],[6.38354,43.73443],[6.38,43.73524],[6.37939,43.7363],[6.37956,43.73868],[6.37745,43.7415],[6.37474,43.743],[6.372,43.74291],[6.37063,43.74197],[6.36495,43.74064],[6.36188,43.7384],[6.35891,43.73577],[6.35635,43.73652],[6.35117,43.73617],[6.34997,43.73684],[6.34857,43.73906],[6.34709,43.73947],[6.3451,43.74197],[6.3415,43.74299],[6.33826,43.74284],[6.33636,43.74336],[6.33513,43.74444],[6.32978,43.7453],[6.32628,43.74687],[6.32543,43.74812],[6.32555,43.74982],[6.32292,43.75334],[6.32113,43.75363],[6.3185,43.75317],[6.31686,43.7536],[6.31697,43.75553],[6.31838,43.75607],[6.31733,43.75791],[6.31415,43.75797],[6.31268,43.75915],[6.3106,43.75941],[6.30932,43.76107],[6.30805,43.76135],[6.3066,43.76324],[6.30411,43.7631],[6.30336,43.76389],[6.30102,43.76316],[6.30003,43.76437],[6.29499,43.76418],[6.29307,43.76546],[6.29035,43.7684],[6.28852,43.76887],[6.28797,43.7698],[6.28318,43.77199],[6.28231,43.77359],[6.27837,43.77432],[6.27428,43.77644],[6.27,43.77668],[6.26862,43.77722],[6.26678,43.77963],[6.26289,43.78188],[6.26199,43.7834],[6.2618,43.78602],[6.26055,43.78795],[6.26052,43.79017],[6.25992,43.79262],[6.25795,43.79562],[6.25738,43.79744],[6.25422,43.80043],[6.24563,43.80239],[6.24223,43.80238],[6.23727,43.80093],[6.23336,43.79903],[6.23079,43.79893],[6.22307,43.79993],[6.21671,43.79951],[6.21241,43.7984],[6.20945,43.79692],[6.20696,43.79502],[6.20273,43.79102],[6.19733,43.78746],[6.19283,43.78226],[6.19064,43.78017],[6.18795,43.77517],[6.18443,43.76672],[6.18289,43.76218],[6.17506,43.75641],[6.17189,43.75354],[6.16881,43.75117],[6.16252,43.7481],[6.15429,43.74364],[6.15054,43.74233],[6.14567,43.74005],[6.1443,43.74005],[6.14149,43.7378],[6.13638,43.73667],[6.13174,43.737],[6.1297,43.73622],[6.12755,43.73742],[6.12266,43.7387],[6.11872,43.74033],[6.11668,43.74165],[6.11642,43.74504],[6.11474,43.74614],[6.11104,43.74567],[6.10875,43.74574],[6.10673,43.74446],[6.10706,43.74351],[6.10632,43.7416],[6.10287,43.73634],[6.09794,43.733],[6.09641,43.73043],[6.0953,43.72962],[6.09228,43.73003],[6.0903,43.72897],[6.09164,43.72794],[6.09174,43.72532],[6.09056,43.72342],[6.08734,43.72046],[6.08805,43.71819],[6.08293,43.71466],[6.08016,43.71201],[6.07818,43.71125],[6.07705,43.7072],[6.0738,43.70572],[6.0704,43.70493],[6.06517,43.70479],[6.05893,43.70324],[6.05751,43.70059],[6.05401,43.69916],[6.05156,43.69771],[6.04813,43.69729],[6.04125,43.69575],[6.03513,43.69407],[6.03455,43.69264],[6.03528,43.69149],[6.0358,43.68796],[6.03903,43.67893],[6.03945,43.67865],[6.03378,43.67631],[6.02914,43.67255],[6.02174,43.66828],[6.01954,43.6707],[6.01631,43.67264],[6.01161,43.67415],[6.01142,43.67708],[6.00802,43.67931],[6.00772,43.68352],[6.00625,43.68577],[6.00574,43.68763],[6.00273,43.68926],[6.00078,43.68968],[6.00054,43.69095],[5.99516,43.69217],[5.9926,43.694],[5.99011,43.69484],[5.98794,43.69506],[5.98566,43.70125],[5.9855,43.70595],[5.98437,43.70868],[5.98476,43.71305],[5.98544,43.71396],[5.98273,43.71527],[5.9797,43.71559],[5.97636,43.7148],[5.97362,43.71475],[5.97184,43.71732],[5.96904,43.72021],[5.96631,43.72129],[5.96458,43.7254],[5.96268,43.72479],[5.96105,43.7224],[5.9597,43.72182],[5.95723,43.71892],[5.95373,43.72065],[5.95152,43.72122],[5.94502,43.72449],[5.94457,43.72537],[5.94048,43.72733],[5.938,43.73057],[5.93883,43.7333],[5.94344,43.73636],[5.9422,43.73793],[5.94115,43.74187],[5.93931,43.74453],[5.93876,43.74879],[5.93772,43.75024],[5.93597,43.75107],[5.93383,43.75116],[5.93054,43.75013],[5.92747,43.75018],[5.92584,43.75163],[5.92547,43.75691],[5.92266,43.75754],[5.92011,43.75641],[5.9161,43.75392],[5.91251,43.75309],[5.90822,43.75327],[5.90534,43.75377],[5.90296,43.75343],[5.90451,43.74821],[5.905,43.74486],[5.9044,43.74231],[5.90565,43.73943],[5.90498,43.73743],[5.90167,43.73419],[5.90121,43.73258],[5.89773,43.73157],[5.89567,43.73046],[5.89129,43.72749],[5.88675,43.72561],[5.88455,43.72391],[5.8782,43.7238],[5.87353,43.72255],[5.8713,43.72258],[5.87016,43.72343],[5.86693,43.72425],[5.86489,43.72354],[5.86113,43.72411],[5.85811,43.72331],[5.8562,43.72358],[5.85453,43.7226],[5.8514,43.71919],[5.84904,43.71818],[5.84881,43.72044],[5.84783,43.72479],[5.84574,43.72648],[5.84573,43.72819],[5.84465,43.72994],[5.84256,43.73685],[5.84068,43.73832],[5.83604,43.74014],[5.83629,43.7417],[5.83328,43.74383],[5.8329,43.74571],[5.83117,43.74693],[5.82788,43.74807],[5.82368,43.74828],[5.82326,43.74766],[5.815,43.74878],[5.81248,43.74949],[5.80678,43.7494],[5.80331,43.74999],[5.78134,43.75566],[5.77855,43.75259],[5.77623,43.75122],[5.77446,43.74956],[5.7694,43.74273],[5.76645,43.73971],[5.76432,43.73833],[5.76206,43.73602],[5.75733,43.72941],[5.75669,43.73156],[5.75314,43.73647],[5.75094,43.73829],[5.74916,43.74055],[5.74587,43.7429],[5.74301,43.74397],[5.74124,43.74542],[5.73938,43.74548],[5.73849,43.74636],[5.73532,43.74732],[5.73412,43.74698],[5.7301,43.7486],[5.72888,43.75008],[5.72637,43.75051],[5.7257,43.75184],[5.71695,43.75553],[5.71506,43.76039],[5.71425,43.7648],[5.71378,43.76963],[5.71388,43.77264],[5.71289,43.77838],[5.71356,43.78112],[5.71195,43.7813],[5.70811,43.77944],[5.70496,43.77954],[5.70058,43.78358],[5.69708,43.78431],[5.69266,43.78444],[5.68991,43.7852],[5.68573,43.78721],[5.68433,43.78873],[5.68484,43.79017],[5.68395,43.7919],[5.68257,43.7928],[5.68033,43.79742],[5.68003,43.79869],[5.67463,43.80448],[5.67524,43.80621],[5.67448,43.80736],[5.66796,43.80949],[5.66242,43.81407],[5.6584,43.81693],[5.65644,43.81937],[5.65575,43.82277],[5.65451,43.82393],[5.65445,43.82511],[5.65067,43.82522],[5.6401,43.8276],[5.63739,43.82727],[5.63409,43.82818],[5.6321,43.82818],[5.62908,43.82976],[5.6277,43.83093],[5.62379,43.83072],[5.62183,43.82925],[5.6184,43.83012],[5.61587,43.82916],[5.61459,43.82776],[5.61127,43.82843],[5.60566,43.82823],[5.60062,43.82603],[5.59543,43.82889],[5.59129,43.82941],[5.58892,43.82701],[5.58479,43.82765],[5.5782,43.82992],[5.5746,43.83029],[5.57056,43.82915],[5.56733,43.82707],[5.56688,43.82425],[5.56452,43.82112],[5.56428,43.81973],[5.55958,43.82148],[5.55786,43.82087],[5.55152,43.81755],[5.5484,43.81672],[5.54625,43.81697],[5.54429,43.81835],[5.54585,43.82566],[5.54681,43.82932],[5.54872,43.8326],[5.54849,43.83856],[5.54884,43.84391],[5.54862,43.85148],[5.55174,43.85139],[5.55316,43.85261],[5.55506,43.85337],[5.55659,43.85499],[5.56133,43.85746],[5.56353,43.85803],[5.56515,43.86028],[5.56686,43.86186],[5.56832,43.86232],[5.5712,43.86179],[5.57348,43.86338],[5.57322,43.86537],[5.57433,43.86764],[5.57796,43.87249],[5.5816,43.87541],[5.58379,43.87678],[5.58341,43.87882],[5.58411,43.88028],[5.58567,43.88024],[5.58719,43.88169],[5.58682,43.88422],[5.5872,43.8856],[5.59029,43.88723],[5.59,43.88796],[5.59118,43.89008],[5.59079,43.8909],[5.59311,43.89233],[5.59514,43.8943],[5.59756,43.89846],[5.59767,43.90287],[5.59989,43.90551],[5.60399,43.90895],[5.60545,43.91071],[5.60713,43.91377],[5.60823,43.91477],[5.60584,43.91641],[5.60491,43.9155],[5.60047,43.91634],[5.59434,43.91683],[5.59038,43.91646],[5.58159,43.91508],[5.58095,43.91994],[5.58151,43.92302],[5.58042,43.92448],[5.5806,43.92547],[5.57645,43.9296],[5.57303,43.932],[5.56789,43.93696],[5.56808,43.93817],[5.57,43.94041],[5.56892,43.94225],[5.56763,43.94264],[5.56608,43.94174],[5.56456,43.94242],[5.55967,43.94286],[5.55625,43.94198],[5.55324,43.94161],[5.54551,43.93948],[5.54499,43.93905],[5.53582,43.94327],[5.53345,43.94451],[5.53002,43.94568],[5.52688,43.94753],[5.52093,43.94464],[5.51563,43.94469],[5.51267,43.94539],[5.51165,43.94845],[5.5092,43.95167],[5.50909,43.95514],[5.50766,43.9577],[5.51009,43.96344],[5.51222,43.96708],[5.51269,43.9689],[5.51317,43.97336],[5.51532,43.97969],[5.51781,43.98773],[5.51806,43.99011],[5.51765,43.9917],[5.51942,43.99454],[5.52362,43.99612],[5.52435,43.99809],[5.52457,44.00213],[5.5264,44.00488],[5.5268,44.00635],[5.5313,44.00901],[5.53168,44.01017],[5.53588,44.01299],[5.53598,44.01357],[5.54045,44.02124],[5.54163,44.02224],[5.54363,44.02596],[5.54364,44.0316],[5.54447,44.03351],[5.54366,44.03663],[5.54412,44.03843],[5.54431,44.04526],[5.54412,44.04645],[5.54518,44.04992],[5.5445,44.05345],[5.54356,44.05561],[5.54357,44.05723],[5.5424,44.06095],[5.54233,44.06311],[5.5441,44.06582],[5.54499,44.06842],[5.5446,44.06989],[5.53905,44.06816],[5.53637,44.06846],[5.53188,44.06737],[5.52806,44.06599],[5.52343,44.06464],[5.52193,44.06458],[5.51643,44.06325],[5.5137,44.06365],[5.50921,44.06386],[5.50264,44.06344],[5.50208,44.06614],[5.49858,44.07168],[5.49801,44.07521],[5.49836,44.08069],[5.49922,44.08278],[5.49864,44.08942],[5.49919,44.09165],[5.50028,44.09329],[5.50041,44.10031],[5.49695,44.10239],[5.49898,44.105],[5.49909,44.10728],[5.49845,44.1092],[5.49879,44.11572],[5.50261,44.11565],[5.50482,44.11627],[5.5087,44.1185],[5.51125,44.12186],[5.51106,44.12411],[5.51843,44.12634],[5.52157,44.12665],[5.52387,44.12754],[5.52766,44.12824],[5.52996,44.12917],[5.53452,44.13026],[5.53779,44.13174],[5.5414,44.13263],[5.54279,44.13399],[5.54399,44.13639],[5.55006,44.14577],[5.55133,44.14979],[5.55605,44.14916],[5.56882,44.14803],[5.56951,44.1481],[5.57776,44.15147],[5.57873,44.15208],[5.58298,44.15762],[5.57796,44.15988],[5.57325,44.16281],[5.56923,44.16698],[5.56735,44.16928],[5.56437,44.1709],[5.56838,44.17999],[5.57032,44.18012],[5.5718,44.18172],[5.57282,44.18173],[5.57535,44.18504],[5.57462,44.18683],[5.57619,44.18804],[5.58188,44.18874],[5.58369,44.18868],[5.58742,44.18736],[5.59099,44.18716],[5.59621,44.18765],[5.60043,44.18933],[5.60205,44.19149],[5.60933,44.19071],[5.60959,44.1875],[5.61146,44.18613],[5.6132,44.18604],[5.61414,44.18381],[5.61596,44.18254],[5.61633,44.18033],[5.61613,44.1778],[5.62061,44.17727],[5.62312,44.17634],[5.62629,44.17594],[5.6287,44.17451],[5.63198,44.17369],[5.63209,44.17108],[5.63359,44.16978],[5.63616,44.16998],[5.63959,44.16759],[5.63894,44.16476],[5.63722,44.16234],[5.63171,44.15858],[5.63222,44.15217],[5.63114,44.15058],[5.63569,44.15026],[5.63967,44.14949],[5.64314,44.14918],[5.64677,44.14812],[5.65335,44.14819],[5.65522,44.14756],[5.65771,44.14753],[5.66347,44.14826],[5.66738,44.14911],[5.67794,44.14638],[5.67786,44.14949],[5.67899,44.15162],[5.67919,44.15535],[5.68272,44.16322],[5.68236,44.16363],[5.67535,44.16478],[5.67264,44.16451],[5.66975,44.16549],[5.66263,44.16687],[5.6517,44.16705],[5.6503,44.16654],[5.64697,44.16629],[5.64571,44.16835],[5.64386,44.1689],[5.64327,44.17072],[5.64378,44.17309],[5.64535,44.17453],[5.64778,44.17518],[5.64722,44.17669],[5.64796,44.17968],[5.6523,44.18541],[5.65159,44.18958],[5.65794,44.18898],[5.66066,44.1898],[5.66863,44.18985],[5.67223,44.18955],[5.67501,44.1888],[5.67524,44.19082],[5.67604,44.19143]]]}},{"type":"Feature","properties":{"code":"05","nom":"Hautes-Alpes"},"geometry":{"type":"Polygon","coordinates":[[[6.26057,45.12685],[6.26417,45.12641],[6.26671,45.12452],[6.26772,45.1225],[6.26911,45.12146],[6.26963,45.11969],[6.27374,45.11752],[6.27484,45.11578],[6.27675,45.11495],[6.28261,45.11412],[6.28488,45.11111],[6.28628,45.11016],[6.28956,45.10965],[6.29355,45.10851],[6.29694,45.10881],[6.29922,45.10855],[6.30191,45.10896],[6.31042,45.1116],[6.31283,45.11151],[6.31733,45.11199],[6.31862,45.11311],[6.32247,45.1146],[6.32484,45.11484],[6.32699,45.11571],[6.32882,45.1174],[6.33229,45.11873],[6.33448,45.12284],[6.33789,45.12065],[6.33954,45.11775],[6.33992,45.11612],[6.34305,45.1152],[6.34598,45.11528],[6.34784,45.11445],[6.34874,45.11293],[6.35153,45.11077],[6.35548,45.1082],[6.35867,45.10655],[6.36278,45.10506],[6.36308,45.10392],[6.36574,45.10096],[6.36699,45.09622],[6.37126,45.09085],[6.37127,45.08914],[6.37241,45.08544],[6.37467,45.08317],[6.37419,45.0816],[6.37264,45.08035],[6.37214,45.07857],[6.37073,45.07754],[6.36772,45.07363],[6.36507,45.07129],[6.36488,45.07017],[6.37185,45.06818],[6.37486,45.06749],[6.37736,45.06789],[6.37944,45.06749],[6.38237,45.06502],[6.38427,45.06391],[6.38854,45.06398],[6.39464,45.06143],[6.39635,45.06105],[6.3979,45.06254],[6.40378,45.06476],[6.40818,45.06402],[6.41078,45.06402],[6.41352,45.06325],[6.41898,45.06117],[6.42278,45.06008],[6.42439,45.06048],[6.42914,45.06284],[6.43173,45.06369],[6.43427,45.06359],[6.43619,45.06277],[6.4386,45.06258],[6.43979,45.0616],[6.44163,45.05803],[6.44409,45.05676],[6.4434,45.05508],[6.44769,45.05272],[6.4518,45.05172],[6.45354,45.05184],[6.4578,45.05399],[6.46289,45.05412],[6.46657,45.0547],[6.46891,45.05561],[6.47411,45.0562],[6.47902,45.05566],[6.48111,45.05631],[6.48623,45.05607],[6.48725,45.05685],[6.48659,45.05935],[6.48721,45.05995],[6.48601,45.06266],[6.48657,45.06508],[6.48915,45.06571],[6.4896,45.06767],[6.48873,45.0696],[6.48851,45.07285],[6.48699,45.07471],[6.48447,45.07587],[6.48311,45.07722],[6.48411,45.07894],[6.48698,45.07992],[6.48679,45.08164],[6.48556,45.08584],[6.48194,45.08853],[6.48038,45.09079],[6.48049,45.09417],[6.48426,45.09434],[6.48669,45.09535],[6.48746,45.09653],[6.49085,45.09768],[6.49382,45.09994],[6.49952,45.10159],[6.5047,45.10367],[6.50736,45.10523],[6.51042,45.109],[6.51304,45.10732],[6.51667,45.10549],[6.51943,45.10516],[6.52166,45.10413],[6.52552,45.10039],[6.52798,45.09994],[6.52971,45.09857],[6.53427,45.09904],[6.53916,45.09909],[6.54101,45.1],[6.54545,45.10061],[6.54845,45.10168],[6.55104,45.10329],[6.55481,45.10424],[6.55866,45.10397],[6.5613,45.10531],[6.56173,45.1102],[6.56135,45.11122],[6.56391,45.11382],[6.56805,45.11597],[6.5708,45.11685],[6.57221,45.1196],[6.57475,45.12131],[6.57653,45.1231],[6.58176,45.12142],[6.58452,45.12009],[6.58718,45.11996],[6.58892,45.1193],[6.59271,45.11894],[6.59559,45.11919],[6.60171,45.1218],[6.60295,45.11979],[6.6065,45.1196],[6.60829,45.12071],[6.61273,45.12046],[6.61555,45.12148],[6.6181,45.11981],[6.62041,45.11671],[6.62482,45.11524],[6.62729,45.11078],[6.62999,45.10933],[6.62671,45.10376],[6.62749,45.10122],[6.62978,45.10046],[6.63121,45.09919],[6.63326,45.09407],[6.63605,45.09406],[6.63885,45.09138],[6.64107,45.08977],[6.64122,45.08734],[6.64409,45.08587],[6.64676,45.08497],[6.64641,45.08011],[6.64524,45.07564],[6.64762,45.07412],[6.64999,45.07353],[6.65294,45.07221],[6.65488,45.07092],[6.65876,45.07194],[6.66211,45.07164],[6.66298,45.0695],[6.66223,45.06812],[6.66303,45.06327],[6.66276,45.06147],[6.66345,45.05957],[6.66365,45.05698],[6.66197,45.05425],[6.65883,45.05221],[6.66135,45.05],[6.66555,45.04854],[6.66681,45.04664],[6.66841,45.04577],[6.66949,45.04424],[6.67033,45.04178],[6.66676,45.04088],[6.66495,45.03954],[6.66572,45.03717],[6.66462,45.03587],[6.6642,45.03385],[6.66539,45.03268],[6.6665,45.03043],[6.66941,45.02857],[6.67084,45.02901],[6.67158,45.0229],[6.67388,45.01962],[6.67514,45.01939],[6.67784,45.02069],[6.67968,45.02057],[6.68311,45.02234],[6.68432,45.02234],[6.6879,45.02098],[6.69188,45.02074],[6.70341,45.02122],[6.70703,45.02188],[6.71044,45.0209],[6.71767,45.02058],[6.72119,45.02203],[6.72568,45.0215],[6.72744,45.02043],[6.72933,45.02037],[6.73364,45.01849],[6.74081,45.01673],[6.74301,45.01647],[6.7454,45.0143],[6.74487,45.01154],[6.74739,45.00775],[6.74833,45.00518],[6.74992,45.00364],[6.7507,44.99879],[6.75169,44.99663],[6.74986,44.99531],[6.74252,44.99482],[6.74126,44.99397],[6.73716,44.99349],[6.73785,44.98923],[6.742,44.98876],[6.74932,44.98488],[6.74919,44.98218],[6.74998,44.97989],[6.74965,44.97744],[6.75137,44.97777],[6.75578,44.97526],[6.75639,44.97424],[6.76103,44.97257],[6.76347,44.97122],[6.76525,44.96197],[6.76494,44.95967],[6.75849,44.94906],[6.75839,44.9478],[6.75629,44.94698],[6.75615,44.94577],[6.75389,44.94595],[6.75281,44.94366],[6.75308,44.94296],[6.75005,44.9406],[6.74682,44.93914],[6.74604,44.93783],[6.74414,44.93721],[6.74484,44.93559],[6.7509,44.93678],[6.75308,44.93787],[6.75797,44.93709],[6.7609,44.9332],[6.76031,44.93192],[6.76104,44.93077],[6.75726,44.93104],[6.75428,44.93187],[6.75389,44.92838],[6.74886,44.92244],[6.75009,44.9201],[6.75177,44.91977],[6.75197,44.91733],[6.75055,44.91463],[6.7508,44.90943],[6.74977,44.90754],[6.75071,44.90565],[6.75464,44.90492],[6.75831,44.90387],[6.76169,44.90253],[6.76675,44.90233],[6.77118,44.90344],[6.77646,44.9008],[6.77637,44.8998],[6.77835,44.89886],[6.77884,44.89525],[6.7804,44.89336],[6.78235,44.89395],[6.7842,44.8937],[6.7837,44.8919],[6.78468,44.88975],[6.7919,44.88943],[6.80152,44.89112],[6.79955,44.88769],[6.80018,44.88434],[6.80301,44.87954],[6.80335,44.87807],[6.80796,44.87566],[6.81173,44.8751],[6.81555,44.87307],[6.81612,44.87227],[6.81926,44.87107],[6.82184,44.87079],[6.82385,44.86905],[6.82701,44.86806],[6.83023,44.86781],[6.83235,44.86583],[6.83334,44.8639],[6.8382,44.86186],[6.83933,44.86028],[6.8413,44.85958],[6.84492,44.85949],[6.84706,44.85855],[6.85122,44.85744],[6.85479,44.85776],[6.85637,44.85611],[6.85791,44.85547],[6.85986,44.8529],[6.86324,44.85061],[6.87019,44.84961],[6.87375,44.85061],[6.87746,44.85104],[6.87989,44.84983],[6.8819,44.84938],[6.88338,44.8481],[6.88724,44.84724],[6.89243,44.8482],[6.89621,44.84783],[6.89816,44.84847],[6.90033,44.84785],[6.90345,44.84795],[6.90466,44.84723],[6.9057,44.84525],[6.9071,44.84438],[6.91316,44.84499],[6.91513,44.84749],[6.92051,44.84998],[6.92213,44.85113],[6.92421,44.85434],[6.92691,44.85635],[6.92632,44.85777],[6.92681,44.8592],[6.92979,44.8616],[6.93121,44.86353],[6.93294,44.86224],[6.93588,44.86168],[6.93724,44.86045],[6.94237,44.8597],[6.94417,44.85908],[6.94583,44.85772],[6.95012,44.85597],[6.95245,44.85583],[6.95494,44.85515],[6.95755,44.85278],[6.9613,44.85066],[6.96456,44.84944],[6.96947,44.8482],[6.97103,44.8463],[6.97515,44.84627],[6.97776,44.84581],[6.98127,44.84679],[6.9855,44.84509],[6.9906,44.84389],[6.99383,44.84227],[6.99621,44.84186],[7.00125,44.84229],[7.00677,44.83932],[7.00635,44.83569],[7.00852,44.8319],[7.00967,44.82879],[7.00932,44.82673],[7.00983,44.82599],[7.01266,44.82511],[7.01955,44.82483],[7.02196,44.82339],[7.02384,44.82307],[7.02252,44.82164],[7.0204,44.82123],[7.02057,44.81947],[7.01959,44.8174],[7.02036,44.81601],[7.01962,44.81311],[7.01466,44.80957],[7.01349,44.80605],[7.01203,44.8036],[7.0101,44.80245],[7.00928,44.8001],[7.00945,44.79834],[7.00802,44.7979],[7.00513,44.79567],[7.00395,44.79284],[7.00102,44.79187],[6.9994,44.78968],[7.00013,44.78858],[7.00594,44.78514],[7.00981,44.78443],[7.01171,44.78369],[7.01324,44.78146],[7.01455,44.78046],[7.01505,44.779],[7.01873,44.77659],[7.01997,44.77398],[7.01993,44.77263],[7.02229,44.77079],[7.0212,44.76995],[7.02049,44.76779],[7.02172,44.76561],[7.02373,44.76409],[7.02475,44.76238],[7.02519,44.76011],[7.02425,44.75541],[7.02197,44.75466],[7.02134,44.75148],[7.02324,44.74915],[7.02329,44.74748],[7.02617,44.74461],[7.02534,44.74226],[7.02345,44.74003],[7.02646,44.73734],[7.02742,44.73573],[7.02895,44.73526],[7.03065,44.73199],[7.02991,44.72976],[7.03148,44.72821],[7.03272,44.72785],[7.03597,44.72501],[7.03669,44.72354],[7.03871,44.72211],[7.04032,44.72001],[7.04211,44.71855],[7.0449,44.71802],[7.04932,44.7164],[7.05462,44.71474],[7.06207,44.71448],[7.06602,44.71333],[7.06638,44.71078],[7.06524,44.70826],[7.06761,44.70497],[7.06796,44.7022],[7.07076,44.70088],[7.07099,44.69816],[7.07318,44.69564],[7.07315,44.69384],[7.07559,44.6903],[7.07473,44.68755],[7.0755,44.68455],[7.07711,44.68092],[7.0737,44.68025],[7.07163,44.67948],[7.06348,44.68026],[7.05973,44.67996],[7.05684,44.68094],[7.05381,44.68273],[7.04965,44.68267],[7.04716,44.68323],[7.04611,44.6844],[7.04438,44.68469],[7.04054,44.68657],[7.03908,44.68802],[7.03679,44.68937],[7.03521,44.68944],[7.03359,44.6904],[7.03031,44.6914],[7.02682,44.69109],[7.02373,44.6913],[7.02049,44.6903],[7.01779,44.68875],[7.0139,44.68909],[7.0093,44.68842],[7.0069,44.68856],[7.00471,44.68716],[7.00158,44.6876],[6.99916,44.69045],[6.99036,44.69045],[6.98707,44.69014],[6.98623,44.68808],[6.98425,44.68641],[6.97918,44.68379],[6.97762,44.68343],[6.97617,44.68092],[6.97148,44.67836],[6.97121,44.6772],[6.9654,44.67752],[6.96318,44.67811],[6.96165,44.67624],[6.95893,44.67386],[6.95765,44.6713],[6.95769,44.66932],[6.95897,44.66863],[6.95818,44.66678],[6.95929,44.66479],[6.9588,44.66247],[6.95631,44.66144],[6.95122,44.65863],[6.94834,44.65482],[6.94351,44.65353],[6.9396,44.65205],[6.93603,44.65337],[6.9335,44.65325],[6.93031,44.65518],[6.9237,44.65544],[6.92062,44.65723],[6.91983,44.65844],[6.91796,44.65883],[6.9156,44.66],[6.91133,44.65715],[6.9076,44.65639],[6.90756,44.65337],[6.90534,44.6523],[6.9016,44.64722],[6.90059,44.64505],[6.89777,44.64417],[6.89324,44.64133],[6.89112,44.63839],[6.89139,44.63703],[6.89004,44.63583],[6.88577,44.63523],[6.88379,44.63336],[6.88257,44.63148],[6.88262,44.63044],[6.88094,44.62995],[6.87881,44.63018],[6.87781,44.62954],[6.87463,44.62922],[6.87126,44.62813],[6.86714,44.62789],[6.86285,44.62933],[6.85842,44.62941],[6.85836,44.62611],[6.85512,44.62489],[6.85383,44.62372],[6.85401,44.62214],[6.85328,44.61821],[6.8539,44.61476],[6.84982,44.61262],[6.84808,44.61133],[6.8451,44.61037],[6.84336,44.60899],[6.8398,44.60859],[6.83708,44.60938],[6.83537,44.60931],[6.83051,44.60995],[6.82443,44.60888],[6.81897,44.60764],[6.81479,44.60497],[6.8133,44.60436],[6.81092,44.60219],[6.80891,44.60138],[6.80715,44.60154],[6.80524,44.60391],[6.80122,44.60434],[6.79941,44.60354],[6.7964,44.60109],[6.79596,44.59705],[6.79423,44.59418],[6.79206,44.59229],[6.78568,44.59451],[6.78172,44.59477],[6.77923,44.59193],[6.77683,44.59008],[6.77392,44.58903],[6.769,44.58823],[6.76694,44.58695],[6.7672,44.58532],[6.7692,44.5833],[6.76836,44.58234],[6.77161,44.58114],[6.77255,44.58024],[6.77183,44.57576],[6.76858,44.57355],[6.76456,44.5737],[6.76252,44.57333],[6.75991,44.57397],[6.75471,44.57111],[6.75221,44.57048],[6.75154,44.56906],[6.74933,44.56649],[6.74925,44.56473],[6.74991,44.56327],[6.74799,44.56045],[6.74286,44.55835],[6.7418,44.55511],[6.73718,44.55254],[6.73316,44.55174],[6.7311,44.55205],[6.7293,44.5532],[6.72541,44.5501],[6.72444,44.54887],[6.7222,44.54761],[6.72002,44.54707],[6.71595,44.54478],[6.71469,44.54321],[6.71125,44.54114],[6.70419,44.53915],[6.70115,44.539],[6.69814,44.54014],[6.69563,44.54024],[6.69261,44.54108],[6.68615,44.5415],[6.68092,44.54103],[6.68101,44.53941],[6.68193,44.53891],[6.68123,44.53639],[6.6816,44.53398],[6.68331,44.53119],[6.68091,44.52769],[6.67977,44.5225],[6.6788,44.52047],[6.67783,44.52005],[6.67426,44.51685],[6.67328,44.514],[6.6722,44.5122],[6.67296,44.50951],[6.67294,44.50681],[6.67037,44.50357],[6.6685,44.5003],[6.66315,44.49789],[6.6616,44.49547],[6.65851,44.49459],[6.65386,44.49477],[6.65193,44.49407],[6.65069,44.49088],[6.64893,44.48946],[6.64365,44.48776],[6.64167,44.48554],[6.64238,44.48321],[6.64116,44.48118],[6.63879,44.47894],[6.63765,44.47622],[6.63746,44.47456],[6.63968,44.47223],[6.63811,44.46877],[6.63696,44.46855],[6.63533,44.46613],[6.63651,44.465],[6.63684,44.46255],[6.63569,44.46152],[6.63675,44.45878],[6.63595,44.45637],[6.63412,44.4564],[6.63259,44.45267],[6.63283,44.44982],[6.6323,44.44692],[6.62823,44.44715],[6.62606,44.4467],[6.6232,44.4473],[6.6182,44.4468],[6.6157,44.44704],[6.61223,44.4468],[6.61061,44.44624],[6.60746,44.44617],[6.60429,44.44841],[6.60165,44.44833],[6.5989,44.44871],[6.59589,44.44697],[6.59286,44.44689],[6.58975,44.44562],[6.58519,44.44605],[6.57962,44.44739],[6.57808,44.4487],[6.57309,44.44663],[6.57053,44.44691],[6.56654,44.44642],[6.56244,44.44549],[6.5563,44.44585],[6.55465,44.44659],[6.55149,44.44715],[6.54737,44.44676],[6.54313,44.44814],[6.54055,44.4508],[6.5363,44.45208],[6.53328,44.45197],[6.53064,44.45022],[6.52751,44.44871],[6.52432,44.44806],[6.51959,44.44796],[6.51666,44.4491],[6.51427,44.4491],[6.51131,44.44984],[6.50917,44.45086],[6.50431,44.45059],[6.50117,44.44912],[6.49794,44.44879],[6.49539,44.45096],[6.49227,44.4513],[6.48929,44.45262],[6.48541,44.45295],[6.48203,44.45401],[6.47947,44.45261],[6.47808,44.45249],[6.47422,44.45118],[6.47135,44.45155],[6.46856,44.45129],[6.46668,44.45397],[6.46519,44.45515],[6.46466,44.45993],[6.46416,44.46123],[6.46054,44.46258],[6.45912,44.46555],[6.45777,44.46619],[6.45647,44.46557],[6.45007,44.46566],[6.44879,44.46538],[6.44516,44.46566],[6.44347,44.46761],[6.44335,44.46865],[6.43911,44.4719],[6.43614,44.47359],[6.435,44.47508],[6.43254,44.47147],[6.43064,44.4704],[6.42804,44.47018],[6.42365,44.46764],[6.42152,44.46771],[6.41781,44.46892],[6.41482,44.46907],[6.41206,44.47012],[6.41002,44.47263],[6.40869,44.47515],[6.40719,44.477],[6.40826,44.47985],[6.40831,44.48134],[6.40612,44.48353],[6.40451,44.48575],[6.4025,44.48745],[6.40093,44.48939],[6.39757,44.49182],[6.39881,44.49416],[6.3878,44.49796],[6.38511,44.49924],[6.38605,44.49992],[6.38397,44.50179],[6.37687,44.50754],[6.37367,44.50851],[6.37014,44.51039],[6.36854,44.51279],[6.36544,44.51899],[6.362,44.52207],[6.35983,44.52261],[6.35731,44.52264],[6.35121,44.51894],[6.3477,44.51545],[6.34456,44.5139],[6.33482,44.5114],[6.3324,44.51],[6.33697,44.50605],[6.3409,44.50349],[6.3444,44.50215],[6.34827,44.49809],[6.3472,44.49619],[6.34494,44.49352],[6.34104,44.48798],[6.34054,44.48165],[6.33975,44.47915],[6.33964,44.47668],[6.3387,44.47476],[6.33874,44.47072],[6.33451,44.4705],[6.33136,44.46963],[6.32659,44.4679],[6.3261,44.46633],[6.32767,44.46534],[6.32711,44.46346],[6.3249,44.46336],[6.31892,44.4651],[6.31186,44.46692],[6.30656,44.47125],[6.30162,44.47358],[6.29895,44.47417],[6.2978,44.47498],[6.29611,44.47761],[6.29349,44.48093],[6.29087,44.4794],[6.28602,44.4775],[6.26883,44.47164],[6.26751,44.46683],[6.26594,44.46602],[6.26283,44.4655],[6.25035,44.46623],[6.248,44.46587],[6.24329,44.46418],[6.24034,44.46405],[6.2376,44.46464],[6.23488,44.46442],[6.23277,44.46287],[6.23614,44.46144],[6.237,44.45939],[6.23733,44.45668],[6.2371,44.45331],[6.23866,44.4501],[6.23988,44.44951],[6.24026,44.44775],[6.24247,44.44791],[6.24413,44.4465],[6.24431,44.44541],[6.24717,44.44292],[6.24709,44.44081],[6.24802,44.43955],[6.24818,44.43739],[6.25032,44.43448],[6.25305,44.43406],[6.25245,44.43143],[6.25425,44.43024],[6.25404,44.42894],[6.25546,44.42677],[6.25927,44.42341],[6.26009,44.42067],[6.25971,44.41956],[6.26145,44.41748],[6.26098,44.41627],[6.26144,44.41351],[6.26249,44.41225],[6.26011,44.41058],[6.25853,44.4086],[6.25767,44.40427],[6.25698,44.40312],[6.25429,44.40141],[6.25141,44.39777],[6.25143,44.39542],[6.24975,44.39472],[6.24753,44.3924],[6.24819,44.38909],[6.24327,44.38773],[6.24201,44.38511],[6.23834,44.38457],[6.23723,44.38397],[6.23372,44.38413],[6.23329,44.38339],[6.22967,44.3826],[6.22822,44.3817],[6.22654,44.38225],[6.22506,44.38425],[6.22478,44.38586],[6.22151,44.38729],[6.22196,44.38863],[6.22104,44.38997],[6.22008,44.39279],[6.21856,44.39365],[6.2173,44.39701],[6.21522,44.3977],[6.21393,44.40064],[6.21232,44.40093],[6.21266,44.40228],[6.20972,44.40409],[6.20845,44.40589],[6.20639,44.40709],[6.20516,44.4092],[6.2036,44.41029],[6.20343,44.41264],[6.20196,44.41418],[6.20003,44.41451],[6.1979,44.41648],[6.19759,44.41761],[6.19554,44.41903],[6.19415,44.4188],[6.19255,44.42007],[6.19093,44.42049],[6.18967,44.42225],[6.18703,44.42229],[6.18457,44.42327],[6.18376,44.42524],[6.18297,44.42941],[6.18225,44.4301],[6.18221,44.43231],[6.18064,44.43232],[6.18037,44.43395],[6.17824,44.43403],[6.17473,44.43716],[6.17502,44.43878],[6.17357,44.43954],[6.16999,44.43759],[6.16907,44.43622],[6.16667,44.43514],[6.16396,44.435],[6.16178,44.43431],[6.15988,44.43504],[6.15983,44.43716],[6.15865,44.43932],[6.15922,44.44034],[6.15625,44.4421],[6.15606,44.44783],[6.15616,44.45522],[6.15562,44.46196],[6.15062,44.46245],[6.14796,44.46312],[6.1457,44.46457],[6.14063,44.46599],[6.14004,44.46647],[6.13449,44.46729],[6.13108,44.46825],[6.12636,44.46814],[6.12409,44.46907],[6.12139,44.47119],[6.11975,44.47196],[6.11857,44.47425],[6.11602,44.47547],[6.10972,44.47553],[6.10717,44.47508],[6.10547,44.47405],[6.10412,44.4724],[6.10175,44.47203],[6.09773,44.47539],[6.0899,44.47782],[6.08658,44.4781],[6.08376,44.47777],[6.08091,44.47658],[6.07969,44.47553],[6.07883,44.47251],[6.07686,44.46929],[6.0812,44.46791],[6.08284,44.46326],[6.08122,44.46099],[6.07943,44.4602],[6.07809,44.45873],[6.07669,44.45562],[6.07405,44.45273],[6.07244,44.45208],[6.07114,44.45054],[6.0726,44.44986],[6.07379,44.44675],[6.07649,44.44464],[6.07565,44.43845],[6.07371,44.4404],[6.06882,44.44259],[6.0663,44.44447],[6.0623,44.44505],[6.05993,44.44615],[6.0616,44.44872],[6.06226,44.45049],[6.0595,44.45111],[6.05944,44.45212],[6.05696,44.45198],[6.05563,44.44797],[6.05491,44.44732],[6.04406,44.44182],[6.04109,44.4406],[6.03764,44.43877],[6.033,44.43695],[6.02631,44.43464],[6.02452,44.43209],[6.02368,44.42571],[6.0228,44.42359],[6.02037,44.42006],[6.0184,44.41854],[6.01442,44.41737],[6.00967,44.41751],[6.00558,44.41679],[5.99955,44.41464],[5.99562,44.41215],[5.99214,44.41168],[5.98761,44.41057],[5.98097,44.40983],[5.97831,44.40843],[5.97738,44.40688],[5.97274,44.40391],[5.96735,44.40192],[5.96229,44.39938],[5.95707,44.39738],[5.95354,44.39502],[5.95208,44.39272],[5.94938,44.38677],[5.94645,44.38289],[5.94471,44.37805],[5.94136,44.37266],[5.94072,44.36934],[5.94104,44.36631],[5.93828,44.3623],[5.93736,44.35936],[5.93071,44.35245],[5.92737,44.35012],[5.92422,44.34891],[5.92227,44.34681],[5.91983,44.34067],[5.91751,44.3385],[5.91368,44.3373],[5.90858,44.33837],[5.90435,44.33791],[5.90325,44.33741],[5.90283,44.33562],[5.90335,44.3338],[5.90538,44.33014],[5.90554,44.32851],[5.90443,44.32692],[5.90302,44.32638],[5.89903,44.32371],[5.8975,44.32218],[5.89619,44.32006],[5.8961,44.31862],[5.89844,44.31571],[5.90009,44.31426],[5.90406,44.31342],[5.90877,44.31152],[5.9118,44.31075],[5.91376,44.31104],[5.91612,44.31241],[5.91797,44.31433],[5.92194,44.31565],[5.92481,44.31498],[5.92477,44.3125],[5.92559,44.30855],[5.92525,44.30587],[5.92353,44.30244],[5.92331,44.30084],[5.92699,44.2963],[5.92714,44.29485],[5.92643,44.29322],[5.92312,44.29147],[5.91664,44.29113],[5.91367,44.28969],[5.91273,44.28873],[5.91299,44.28688],[5.91614,44.28291],[5.91664,44.27985],[5.9136,44.27609],[5.91241,44.27307],[5.91232,44.27153],[5.913,44.26832],[5.91556,44.26716],[5.92059,44.26754],[5.92372,44.26709],[5.92461,44.26651],[5.92503,44.26398],[5.92437,44.26153],[5.9205,44.2575],[5.9197,44.25482],[5.91994,44.25332],[5.92151,44.25049],[5.92183,44.24841],[5.91319,44.24871],[5.90915,44.25236],[5.90757,44.25322],[5.88368,44.26855],[5.88013,44.27101],[5.87832,44.27336],[5.87769,44.27527],[5.87502,44.27689],[5.8758,44.28258],[5.87661,44.28472],[5.87733,44.28929],[5.87411,44.29196],[5.87045,44.29375],[5.86865,44.2951],[5.86655,44.29584],[5.86509,44.29544],[5.86044,44.29625],[5.85871,44.29766],[5.85665,44.29696],[5.85609,44.29797],[5.85404,44.29834],[5.85231,44.29984],[5.84758,44.30129],[5.84395,44.29942],[5.83613,44.29754],[5.83707,44.29557],[5.83688,44.29229],[5.83419,44.28909],[5.82874,44.28421],[5.82509,44.27959],[5.82391,44.2789],[5.82272,44.27552],[5.82302,44.2701],[5.8257,44.26653],[5.82677,44.26407],[5.82666,44.26251],[5.82832,44.26097],[5.83384,44.25789],[5.83556,44.25737],[5.83794,44.2551],[5.84003,44.2536],[5.84575,44.25157],[5.85183,44.24837],[5.86002,44.24509],[5.86126,44.24155],[5.86089,44.23845],[5.86104,44.23569],[5.86495,44.2331],[5.86794,44.23179],[5.87028,44.22996],[5.87202,44.22778],[5.87293,44.22195],[5.87378,44.21819],[5.87643,44.21436],[5.88179,44.211],[5.88363,44.21037],[5.89497,44.20712],[5.9033,44.20665],[5.90521,44.20633],[5.90793,44.20658],[5.91093,44.2056],[5.91474,44.20343],[5.91319,44.1979],[5.90931,44.19047],[5.90551,44.19098],[5.90201,44.19106],[5.89043,44.19011],[5.8894,44.1927],[5.88758,44.19375],[5.88341,44.19307],[5.87797,44.1931],[5.86716,44.19343],[5.86357,44.19427],[5.86213,44.19422],[5.85567,44.19623],[5.85412,44.19631],[5.84507,44.19992],[5.83806,44.2001],[5.83323,44.19988],[5.82857,44.20067],[5.81484,44.20976],[5.81392,44.21025],[5.79539,44.21346],[5.7933,44.21303],[5.79172,44.21169],[5.78819,44.21031],[5.78419,44.20935],[5.78022,44.2068],[5.77651,44.20553],[5.77388,44.20551],[5.77113,44.2065],[5.76834,44.20689],[5.76323,44.20858],[5.75549,44.21021],[5.75107,44.20935],[5.74804,44.20786],[5.747,44.20524],[5.74433,44.20337],[5.74013,44.20214],[5.73673,44.20077],[5.73362,44.20014],[5.72918,44.20013],[5.72722,44.20083],[5.7223,44.19999],[5.72209,44.19956],[5.71391,44.19927],[5.71258,44.19806],[5.71177,44.19586],[5.712,44.19485],[5.70819,44.19303],[5.70366,44.19187],[5.70289,44.19041],[5.69802,44.18981],[5.69321,44.18868],[5.69209,44.18648],[5.68857,44.18836],[5.68602,44.18875],[5.68395,44.18962],[5.68195,44.18969],[5.67817,44.19051],[5.67604,44.19143],[5.67943,44.19178],[5.6845,44.19276],[5.68642,44.19464],[5.68645,44.19716],[5.68336,44.20022],[5.6831,44.20352],[5.68236,44.2048],[5.67892,44.20801],[5.67879,44.20909],[5.67685,44.21027],[5.67602,44.21215],[5.67665,44.21338],[5.67751,44.21728],[5.67726,44.21976],[5.67921,44.22093],[5.68069,44.22503],[5.68058,44.22742],[5.67945,44.2288],[5.68101,44.2307],[5.68131,44.23289],[5.68241,44.2343],[5.67763,44.23629],[5.67515,44.23789],[5.673,44.23984],[5.67544,44.24405],[5.67299,44.24619],[5.67342,44.24821],[5.67468,44.24962],[5.67388,44.25324],[5.67419,44.25639],[5.67561,44.25829],[5.67739,44.25863],[5.67986,44.26126],[5.68454,44.2632],[5.68559,44.26393],[5.68657,44.26692],[5.68377,44.26944],[5.6804,44.27192],[5.67561,44.27589],[5.67252,44.27436],[5.65933,44.27199],[5.65759,44.27236],[5.6517,44.26875],[5.64678,44.26709],[5.64558,44.26924],[5.64751,44.27248],[5.64524,44.27443],[5.64257,44.27604],[5.63864,44.2775],[5.63677,44.27873],[5.63593,44.28001],[5.63327,44.28212],[5.63211,44.2839],[5.63177,44.28689],[5.63299,44.29045],[5.63672,44.29242],[5.63972,44.29336],[5.643,44.29381],[5.64194,44.29502],[5.6396,44.29567],[5.63821,44.299],[5.63625,44.30077],[5.63191,44.30075],[5.62705,44.30108],[5.62466,44.30331],[5.62307,44.30407],[5.62074,44.30617],[5.61977,44.30786],[5.61615,44.30944],[5.61392,44.30879],[5.60947,44.30635],[5.6079,44.30667],[5.60808,44.30851],[5.61102,44.31059],[5.61059,44.31321],[5.61107,44.31594],[5.61605,44.31657],[5.61835,44.31831],[5.61879,44.31965],[5.62,44.32015],[5.62345,44.32329],[5.62447,44.32363],[5.62872,44.32782],[5.63257,44.32835],[5.63104,44.33109],[5.63082,44.33299],[5.62692,44.33476],[5.6238,44.33522],[5.62349,44.33384],[5.61777,44.3323],[5.61315,44.33291],[5.61085,44.33243],[5.60618,44.33263],[5.60397,44.33421],[5.59879,44.33307],[5.59531,44.33176],[5.59199,44.33227],[5.59125,44.33321],[5.58792,44.33211],[5.58322,44.33248],[5.57434,44.33227],[5.57386,44.33394],[5.57131,44.33347],[5.56803,44.33217],[5.56476,44.33415],[5.56051,44.33557],[5.55754,44.33318],[5.55602,44.3329],[5.55559,44.3317],[5.55313,44.33164],[5.55214,44.33082],[5.54727,44.33],[5.54457,44.33136],[5.541,44.33115],[5.53737,44.33353],[5.53878,44.33674],[5.53986,44.34264],[5.5373,44.34261],[5.53306,44.34328],[5.53109,44.34275],[5.52896,44.34303],[5.52275,44.34775],[5.52137,44.35108],[5.51049,44.34607],[5.50868,44.34616],[5.50445,44.34443],[5.50229,44.34408],[5.49959,44.34192],[5.49803,44.33971],[5.49368,44.33793],[5.49129,44.33786],[5.49057,44.33963],[5.4892,44.33998],[5.48792,44.3416],[5.48401,44.34486],[5.48218,44.34729],[5.48246,44.34981],[5.47989,44.35119],[5.47517,44.35154],[5.47126,44.35045],[5.46786,44.35216],[5.46687,44.35454],[5.46676,44.35646],[5.46726,44.36045],[5.46574,44.36486],[5.46404,44.3658],[5.46255,44.36738],[5.46066,44.36832],[5.45882,44.36851],[5.45199,44.36743],[5.44882,44.36905],[5.4451,44.36848],[5.44392,44.36775],[5.43999,44.3683],[5.43832,44.3674],[5.43191,44.37099],[5.43173,44.37348],[5.43023,44.37501],[5.43022,44.37699],[5.43376,44.37648],[5.4366,44.37785],[5.43873,44.37753],[5.44144,44.37776],[5.44415,44.37945],[5.44314,44.38046],[5.44088,44.38409],[5.44079,44.38791],[5.44303,44.39124],[5.43638,44.40226],[5.43526,44.40631],[5.43428,44.40781],[5.43415,44.41011],[5.43123,44.41425],[5.42853,44.4155],[5.42632,44.41533],[5.42295,44.41577],[5.42217,44.419],[5.4184,44.42477],[5.42301,44.4277],[5.42789,44.42978],[5.43007,44.4317],[5.43418,44.43344],[5.43672,44.4337],[5.4425,44.43306],[5.44685,44.43175],[5.44971,44.43122],[5.45341,44.42977],[5.45524,44.42859],[5.45878,44.42769],[5.46015,44.42661],[5.46291,44.42654],[5.46675,44.42409],[5.47044,44.42287],[5.47095,44.42182],[5.47285,44.42039],[5.47649,44.41972],[5.48323,44.42432],[5.48311,44.4259],[5.48463,44.42833],[5.48656,44.42931],[5.49233,44.42889],[5.49362,44.42822],[5.4983,44.43732],[5.49772,44.43815],[5.49358,44.43934],[5.48766,44.44019],[5.48546,44.44178],[5.48113,44.44168],[5.47403,44.44416],[5.47326,44.44509],[5.47066,44.4456],[5.46443,44.44789],[5.46468,44.4504],[5.46384,44.45205],[5.46444,44.45532],[5.46405,44.45736],[5.4609,44.45974],[5.46105,44.46366],[5.45873,44.46614],[5.45941,44.46698],[5.459,44.46903],[5.46153,44.4704],[5.46742,44.47222],[5.46773,44.47333],[5.46627,44.47558],[5.46543,44.48006],[5.46279,44.48108],[5.46116,44.48351],[5.46047,44.48591],[5.45891,44.48852],[5.45886,44.4901],[5.45756,44.49509],[5.45693,44.49624],[5.45841,44.49939],[5.46149,44.4993],[5.46426,44.50053],[5.46833,44.50034],[5.4714,44.49976],[5.47203,44.49852],[5.47359,44.49857],[5.47427,44.4972],[5.47427,44.49454],[5.47586,44.49382],[5.47988,44.49124],[5.48723,44.49117],[5.49245,44.49134],[5.49516,44.49105],[5.49671,44.49168],[5.50627,44.49204],[5.51022,44.49171],[5.51227,44.49106],[5.51609,44.49173],[5.51692,44.49103],[5.51972,44.49059],[5.523,44.4883],[5.5259,44.48844],[5.53135,44.4855],[5.53608,44.48478],[5.54526,44.4825],[5.55111,44.47909],[5.55522,44.47696],[5.55672,44.47574],[5.55878,44.47307],[5.56139,44.47466],[5.56469,44.47525],[5.5703,44.47676],[5.5757,44.47326],[5.5792,44.47169],[5.58452,44.46991],[5.58942,44.46874],[5.59508,44.46651],[5.5983,44.46645],[5.60338,44.46542],[5.6063,44.46795],[5.60915,44.46841],[5.61174,44.4696],[5.61631,44.47271],[5.61813,44.47481],[5.62105,44.48212],[5.62415,44.48369],[5.62502,44.48457],[5.62497,44.48704],[5.62353,44.48947],[5.62471,44.49236],[5.62502,44.4948],[5.62668,44.49857],[5.62979,44.50119],[5.63375,44.50228],[5.63564,44.50237],[5.63931,44.50167],[5.6413,44.50234],[5.64443,44.5018],[5.65007,44.49916],[5.65197,44.49956],[5.65696,44.50202],[5.6611,44.50187],[5.66247,44.50138],[5.6645,44.50189],[5.66293,44.50527],[5.65999,44.50779],[5.65828,44.50983],[5.65314,44.51483],[5.64786,44.51866],[5.6471,44.51959],[5.64302,44.52179],[5.63621,44.52704],[5.6311,44.53128],[5.6299,44.53266],[5.62737,44.53458],[5.62458,44.53552],[5.62187,44.53528],[5.61499,44.53282],[5.61198,44.53606],[5.60812,44.53805],[5.60472,44.54067],[5.59725,44.54327],[5.59823,44.54603],[5.59815,44.54915],[5.59987,44.55298],[5.60026,44.55534],[5.60217,44.55683],[5.60267,44.5592],[5.6047,44.56396],[5.60609,44.56513],[5.60702,44.56834],[5.60905,44.57082],[5.61285,44.57124],[5.61536,44.57325],[5.61592,44.57539],[5.6159,44.57939],[5.61785,44.5839],[5.62014,44.58436],[5.62199,44.5859],[5.62502,44.58585],[5.62632,44.58662],[5.62679,44.58841],[5.62573,44.58957],[5.62751,44.59105],[5.62748,44.59496],[5.62909,44.59541],[5.63139,44.59751],[5.63204,44.59984],[5.63491,44.60165],[5.63522,44.60294],[5.63659,44.60461],[5.63518,44.60866],[5.63533,44.60915],[5.64133,44.60957],[5.64193,44.60999],[5.64619,44.60938],[5.64719,44.61156],[5.64784,44.61519],[5.64971,44.61828],[5.64946,44.61937],[5.64618,44.62141],[5.64306,44.62217],[5.6429,44.62605],[5.64123,44.62786],[5.64162,44.63118],[5.63921,44.63552],[5.64158,44.63856],[5.6413,44.64253],[5.64034,44.64436],[5.64022,44.64793],[5.64172,44.65107],[5.64493,44.65216],[5.64803,44.65225],[5.65006,44.65354],[5.65155,44.65521],[5.65446,44.65539],[5.65633,44.65372],[5.6555,44.65149],[5.6583,44.65079],[5.66145,44.65074],[5.66481,44.64984],[5.66844,44.64837],[5.67135,44.64969],[5.67996,44.65223],[5.68372,44.65073],[5.68655,44.64844],[5.68964,44.64726],[5.69556,44.64596],[5.7014,44.64539],[5.70377,44.64491],[5.70542,44.64396],[5.70688,44.64208],[5.71003,44.64302],[5.7146,44.64365],[5.71544,44.64269],[5.71903,44.6405],[5.72107,44.63973],[5.72804,44.6392],[5.73486,44.64044],[5.73865,44.64064],[5.73639,44.64305],[5.73477,44.64648],[5.73679,44.64975],[5.73951,44.64891],[5.7428,44.64904],[5.7433,44.64767],[5.74908,44.64849],[5.75356,44.64858],[5.75296,44.65008],[5.75044,44.65133],[5.74748,44.65471],[5.75009,44.6563],[5.75035,44.65958],[5.74992,44.66081],[5.75158,44.66111],[5.7535,44.66061],[5.75394,44.66271],[5.75502,44.66286],[5.75688,44.6611],[5.76109,44.65876],[5.76381,44.65557],[5.76793,44.65487],[5.76977,44.65499],[5.77254,44.65357],[5.77665,44.6538],[5.78048,44.65264],[5.78247,44.65317],[5.78726,44.65308],[5.79062,44.65329],[5.79234,44.65567],[5.79143,44.65862],[5.79252,44.66084],[5.79508,44.66145],[5.79784,44.66325],[5.80039,44.66934],[5.79963,44.67031],[5.80027,44.6715],[5.79929,44.67275],[5.79942,44.67415],[5.80119,44.67517],[5.80647,44.67718],[5.80755,44.67724],[5.81125,44.67874],[5.81504,44.68116],[5.81769,44.68207],[5.8211,44.68425],[5.8258,44.68569],[5.82716,44.68641],[5.82969,44.68868],[5.83044,44.69055],[5.82716,44.69645],[5.82712,44.70029],[5.82541,44.70147],[5.82036,44.70364],[5.81496,44.70327],[5.81133,44.70567],[5.80804,44.7055],[5.80387,44.70585],[5.80147,44.70678],[5.80125,44.70828],[5.80319,44.71034],[5.80746,44.71191],[5.81032,44.71219],[5.81117,44.71275],[5.81166,44.71575],[5.81116,44.71789],[5.81495,44.7211],[5.81486,44.72274],[5.81657,44.72713],[5.81816,44.72938],[5.81768,44.73097],[5.82142,44.73324],[5.8227,44.73559],[5.82542,44.73673],[5.82743,44.73982],[5.82931,44.74161],[5.82963,44.74367],[5.8278,44.74504],[5.82746,44.74761],[5.82845,44.75046],[5.82746,44.75185],[5.8267,44.75416],[5.82647,44.75651],[5.82709,44.75969],[5.83569,44.75746],[5.83843,44.75782],[5.84095,44.75675],[5.84464,44.75286],[5.84679,44.75162],[5.85084,44.75078],[5.85188,44.75128],[5.85608,44.75084],[5.86068,44.75146],[5.86669,44.75164],[5.86832,44.75029],[5.87164,44.74978],[5.8712,44.74894],[5.87395,44.74845],[5.87546,44.7493],[5.87889,44.74834],[5.8795,44.74702],[5.88181,44.74663],[5.88524,44.74711],[5.88883,44.7488],[5.88942,44.75009],[5.88942,44.75239],[5.89227,44.75572],[5.89463,44.7548],[5.89714,44.75675],[5.90015,44.75832],[5.90254,44.75807],[5.90564,44.75828],[5.91086,44.75771],[5.9139,44.75573],[5.91661,44.75353],[5.9173,44.75229],[5.91901,44.75143],[5.92067,44.75169],[5.92221,44.75408],[5.92408,44.75555],[5.92484,44.75692],[5.92682,44.75714],[5.93026,44.75873],[5.93108,44.75962],[5.93366,44.75944],[5.93622,44.7599],[5.93817,44.76268],[5.93727,44.76361],[5.94539,44.76192],[5.95112,44.75962],[5.95247,44.76214],[5.9525,44.76758],[5.95184,44.7695],[5.95316,44.77131],[5.9574,44.77326],[5.97186,44.77806],[5.98015,44.78118],[5.97937,44.78585],[5.97778,44.79098],[5.97348,44.79287],[5.96921,44.79441],[5.96633,44.79499],[5.96399,44.79592],[5.96152,44.79595],[5.96073,44.79656],[5.96067,44.79855],[5.95953,44.79957],[5.95376,44.79953],[5.95175,44.80067],[5.94952,44.80453],[5.95349,44.80607],[5.95503,44.80746],[5.95743,44.80837],[5.96024,44.81198],[5.96464,44.81176],[5.96934,44.81396],[5.97255,44.81456],[5.97918,44.81858],[5.9849,44.81891],[5.98831,44.81794],[5.99241,44.81772],[5.99617,44.81787],[5.99819,44.81894],[6.00247,44.81979],[6.00552,44.82082],[6.00774,44.82386],[6.00775,44.82521],[6.00906,44.82769],[6.00941,44.83038],[6.01142,44.83104],[6.01326,44.83332],[6.01594,44.83548],[6.02182,44.83755],[6.02506,44.83669],[6.02735,44.83782],[6.03021,44.8381],[6.03094,44.83659],[6.03414,44.83518],[6.03582,44.83162],[6.0379,44.82943],[6.0405,44.82754],[6.04728,44.82368],[6.04769,44.82132],[6.05046,44.81812],[6.05261,44.8168],[6.05451,44.81682],[6.0565,44.81581],[6.05856,44.81904],[6.06131,44.82047],[6.06695,44.82142],[6.06823,44.82373],[6.06958,44.82508],[6.07137,44.82551],[6.0733,44.82779],[6.07899,44.82856],[6.08011,44.82951],[6.08549,44.83236],[6.08794,44.83291],[6.08994,44.83573],[6.09302,44.8363],[6.09652,44.83749],[6.09908,44.8398],[6.1007,44.84258],[6.10642,44.84388],[6.11068,44.84316],[6.11219,44.84486],[6.11471,44.84663],[6.11669,44.84933],[6.11702,44.85119],[6.11833,44.85277],[6.12111,44.85353],[6.12256,44.85547],[6.1247,44.85729],[6.12699,44.86056],[6.12836,44.8619],[6.12977,44.86213],[6.1329,44.8645],[6.13622,44.86407],[6.13857,44.86328],[6.13967,44.86162],[6.14221,44.86063],[6.14376,44.85842],[6.15117,44.85813],[6.15358,44.85926],[6.15599,44.8592],[6.15854,44.85857],[6.16044,44.85562],[6.16232,44.85425],[6.16845,44.85225],[6.17042,44.85434],[6.17667,44.85414],[6.18152,44.85466],[6.18767,44.85377],[6.18948,44.85429],[6.19061,44.8562],[6.19187,44.85692],[6.19473,44.85713],[6.19638,44.85898],[6.20207,44.85892],[6.20623,44.85766],[6.20695,44.85614],[6.20843,44.85547],[6.21051,44.8554],[6.21569,44.85409],[6.21797,44.85415],[6.22127,44.85333],[6.22211,44.85366],[6.22544,44.8522],[6.22908,44.85193],[6.23011,44.85222],[6.23541,44.85163],[6.23746,44.85197],[6.24699,44.85173],[6.24869,44.85236],[6.24998,44.85191],[6.2517,44.85387],[6.25349,44.85516],[6.25324,44.85603],[6.25502,44.8588],[6.25629,44.85916],[6.25645,44.86052],[6.25766,44.86156],[6.25837,44.86373],[6.26185,44.86538],[6.26321,44.86682],[6.26941,44.87047],[6.27084,44.87097],[6.27419,44.87095],[6.2774,44.87147],[6.28146,44.86993],[6.28521,44.87184],[6.28645,44.87337],[6.2886,44.87406],[6.29231,44.87385],[6.29501,44.8742],[6.29866,44.87313],[6.30391,44.87305],[6.30727,44.86946],[6.30868,44.86576],[6.31235,44.86298],[6.31736,44.86191],[6.31717,44.8602],[6.32012,44.85704],[6.31915,44.8549],[6.3204,44.8536],[6.32184,44.85346],[6.32409,44.85221],[6.32657,44.85222],[6.33044,44.85128],[6.33632,44.84837],[6.33906,44.84894],[6.34455,44.84934],[6.34497,44.85005],[6.34806,44.85166],[6.35395,44.85348],[6.35536,44.85478],[6.3538,44.85677],[6.35279,44.85969],[6.35133,44.86244],[6.35392,44.86496],[6.35339,44.86836],[6.35232,44.87133],[6.35087,44.87232],[6.3504,44.87369],[6.35091,44.87574],[6.35078,44.8812],[6.35305,44.88373],[6.35545,44.88442],[6.35642,44.88583],[6.3593,44.88807],[6.358,44.88929],[6.35844,44.89206],[6.35818,44.89378],[6.35688,44.89518],[6.3536,44.89746],[6.35641,44.90028],[6.35765,44.90281],[6.3576,44.90489],[6.3589,44.90718],[6.35743,44.90877],[6.35656,44.91087],[6.35767,44.91321],[6.35609,44.91593],[6.35654,44.91871],[6.35612,44.92102],[6.35746,44.92214],[6.35299,44.92451],[6.35317,44.92608],[6.35603,44.92813],[6.35564,44.92982],[6.35648,44.93082],[6.35637,44.93308],[6.35897,44.93664],[6.35834,44.93851],[6.35884,44.94128],[6.35537,44.9424],[6.35229,44.94277],[6.35046,44.94396],[6.34765,44.94442],[6.34338,44.9442],[6.34091,44.94623],[6.33907,44.94702],[6.33615,44.94698],[6.33395,44.94647],[6.33177,44.9469],[6.33052,44.94641],[6.329,44.94732],[6.32292,44.95302],[6.3228,44.95487],[6.32361,44.96128],[6.32283,44.96176],[6.32522,44.96344],[6.3279,44.96474],[6.32954,44.96924],[6.32592,44.97003],[6.32269,44.97203],[6.32229,44.97429],[6.31819,44.97593],[6.31848,44.97714],[6.31543,44.97904],[6.31482,44.98018],[6.31528,44.9822],[6.31679,44.98423],[6.31633,44.98667],[6.31712,44.9888],[6.31593,44.98997],[6.31889,44.99262],[6.31899,44.99378],[6.32034,44.99518],[6.32125,44.99727],[6.32341,44.99822],[6.32352,44.99907],[6.32164,45.00018],[6.3182,45.00386],[6.31332,45.00385],[6.3064,45.00475],[6.30379,45.003],[6.30133,45.00408],[6.29647,45.00348],[6.29392,45.00252],[6.29013,45.0018],[6.28518,45.00011],[6.27895,45.00078],[6.27556,45.00045],[6.27177,44.99877],[6.2697,44.99835],[6.26607,44.99829],[6.26372,44.99707],[6.26001,44.99777],[6.25653,44.99681],[6.25563,44.99586],[6.25343,44.99521],[6.25176,44.9967],[6.23077,45.00319],[6.21153,45.00923],[6.20936,45.0101],[6.20492,45.01247],[6.20393,45.01247],[6.20245,45.02105],[6.20276,45.02276],[6.20484,45.02634],[6.2073,45.02697],[6.20981,45.02924],[6.20869,45.03256],[6.20973,45.03599],[6.20859,45.04068],[6.21053,45.04326],[6.21079,45.04514],[6.21441,45.047],[6.21558,45.04831],[6.21534,45.05323],[6.21692,45.0553],[6.21679,45.05702],[6.21781,45.05995],[6.21903,45.06108],[6.22008,45.06537],[6.22468,45.06679],[6.22979,45.06729],[6.23289,45.06675],[6.24012,45.06772],[6.24348,45.06937],[6.24452,45.07171],[6.24073,45.07387],[6.23924,45.07514],[6.23902,45.07784],[6.23801,45.07873],[6.23753,45.08217],[6.23828,45.08274],[6.23721,45.08579],[6.23583,45.08723],[6.23452,45.09228],[6.23343,45.09298],[6.23215,45.09496],[6.23071,45.0961],[6.2306,45.09817],[6.22943,45.0997],[6.22984,45.10121],[6.22974,45.10541],[6.22885,45.10831],[6.23154,45.11061],[6.23372,45.11176],[6.23922,45.11225],[6.24016,45.1128],[6.24564,45.11969],[6.24652,45.12034],[6.2545,45.12079],[6.25714,45.12218],[6.25905,45.12429],[6.26057,45.12685]]]}},{"type":"Feature","properties":{"code":"84","nom":"Vaucluse"},"geometry":{"type":"MultiPolygon","coordinates":[[[[4.89291,44.36482],[4.89318,44.36788],[4.89455,44.3691],[4.8999,44.36952],[4.90248,44.37126],[4.9024,44.37243],[4.90489,44.37307],[4.90663,44.3741],[4.90896,44.37734],[4.91087,44.38378],[4.91186,44.38789],[4.90968,44.39672],[4.91437,44.40194],[4.91852,44.40779],[4.92191,44.40951],[4.92342,44.40808],[4.9254,44.40879],[4.92607,44.40991],[4.92842,44.41166],[4.93051,44.41219],[4.93276,44.41188],[4.93503,44.41214],[4.93922,44.41457],[4.9433,44.41429],[4.94621,44.41486],[4.94778,44.41657],[4.95192,44.41874],[4.95196,44.42005],[4.95563,44.42052],[4.95928,44.41978],[4.96047,44.42005],[4.9633,44.42193],[4.96439,44.42349],[4.96437,44.42498],[4.96836,44.427],[4.96999,44.42967],[4.97044,44.43137],[4.97308,44.43153],[4.97667,44.42875],[4.97743,44.42751],[4.97764,44.42485],[4.97869,44.42348],[4.98457,44.42308],[4.98861,44.4232],[4.99075,44.42054],[4.99586,44.41683],[5.00106,44.4126],[5.00637,44.41172],[5.00997,44.41083],[5.01074,44.41116],[5.01215,44.41582],[5.01707,44.41615],[5.01876,44.41598],[5.02019,44.41027],[5.01727,44.40841],[5.01766,44.40727],[5.01331,44.40535],[5.01451,44.40009],[5.01558,44.39304],[5.0181,44.3933],[5.02077,44.39122],[5.02271,44.39126],[5.02635,44.39243],[5.0289,44.39192],[5.03105,44.39084],[5.03232,44.39126],[5.0345,44.39084],[5.03689,44.38944],[5.03818,44.38761],[5.04294,44.38727],[5.04404,44.38503],[5.04408,44.38342],[5.04509,44.38222],[5.04757,44.38135],[5.05197,44.38134],[5.05405,44.38178],[5.05542,44.38278],[5.05795,44.38322],[5.05981,44.38408],[5.0625,44.3841],[5.06474,44.38356],[5.06445,44.38253],[5.06585,44.38173],[5.06794,44.38213],[5.06875,44.38333],[5.071,44.38313],[5.07206,44.38041],[5.07156,44.37749],[5.06839,44.37546],[5.06758,44.37443],[5.06363,44.373],[5.06246,44.37217],[5.05903,44.37131],[5.0576,44.37016],[5.05697,44.36726],[5.05504,44.36502],[5.04783,44.36379],[5.04274,44.36219],[5.04075,44.36414],[5.03666,44.36421],[5.03477,44.36378],[5.03252,44.36121],[5.0277,44.36282],[5.02598,44.36228],[5.02389,44.36056],[5.02217,44.35845],[5.02179,44.35309],[5.02202,44.34963],[5.02312,44.34775],[5.02329,44.34595],[5.0202,44.34259],[5.01996,44.34162],[5.01786,44.34112],[5.01454,44.33841],[5.01411,44.33711],[5.01169,44.33649],[5.00901,44.33377],[5.00998,44.33198],[5.01035,44.32787],[5.01378,44.32579],[5.01154,44.32479],[5.00842,44.32396],[5.00065,44.31983],[4.99657,44.31974],[4.9983,44.31754],[4.99574,44.31656],[4.99313,44.31427],[4.99088,44.31176],[4.99067,44.31005],[4.98975,44.30877],[4.98965,44.30674],[4.9889,44.30393],[4.98771,44.30112],[4.98787,44.29909],[4.98866,44.29709],[4.98788,44.29377],[4.98702,44.29271],[4.97965,44.29748],[4.9762,44.29751],[4.97194,44.29883],[4.96856,44.29909],[4.96211,44.29919],[4.95946,44.29875],[4.95921,44.30039],[4.95698,44.30241],[4.95505,44.30147],[4.9509,44.30093],[4.94905,44.3031],[4.947,44.30318],[4.94403,44.30586],[4.94205,44.30622],[4.93721,44.30614],[4.93305,44.30701],[4.92215,44.30878],[4.91725,44.30854],[4.91238,44.30766],[4.90812,44.30617],[4.90126,44.30543],[4.89763,44.30564],[4.89166,44.30425],[4.89091,44.30562],[4.89156,44.31037],[4.89138,44.3134],[4.88768,44.3163],[4.88408,44.32021],[4.88163,44.32487],[4.88228,44.32643],[4.8847,44.32904],[4.88644,44.32969],[4.88761,44.33147],[4.88947,44.33308],[4.89423,44.33287],[4.89533,44.33806],[4.88575,44.34287],[4.87965,44.34534],[4.87802,44.34543],[4.86953,44.34508],[4.8701,44.34807],[4.87264,44.35015],[4.87776,44.35269],[4.88089,44.35361],[4.88063,44.35528],[4.88348,44.35571],[4.88494,44.35753],[4.88793,44.35844],[4.89068,44.35978],[4.89228,44.36163],[4.89291,44.36482]]],[[[4.64922,44.27036],[4.65097,44.27436],[4.65135,44.27712],[4.65109,44.28288],[4.65139,44.2867],[4.65291,44.29097],[4.65367,44.29728],[4.65347,44.3021],[4.65165,44.30681],[4.64983,44.30958],[4.64932,44.31156],[4.65133,44.32258],[4.65156,44.32694],[4.65062,44.32981],[4.65902,44.32688],[4.66953,44.32284],[4.67132,44.32366],[4.67143,44.32478],[4.67528,44.32399],[4.67903,44.32049],[4.68692,44.32033],[4.69552,44.3207],[4.70161,44.32052],[4.70781,44.32071],[4.71302,44.32065],[4.71251,44.32386],[4.71381,44.32557],[4.71885,44.32573],[4.71795,44.32689],[4.7247,44.32633],[4.73344,44.32617],[4.74168,44.32537],[4.74289,44.32551],[4.74932,44.32507],[4.75543,44.32539],[4.76225,44.32538],[4.76391,44.32454],[4.76511,44.32289],[4.76817,44.3212],[4.76872,44.31957],[4.77182,44.31747],[4.77558,44.31796],[4.77667,44.31924],[4.77967,44.31937],[4.78225,44.3159],[4.78534,44.31351],[4.78749,44.31358],[4.7905,44.30753],[4.79347,44.30661],[4.79658,44.3047],[4.79935,44.30348],[4.80456,44.3039],[4.80354,44.30023],[4.80288,44.2966],[4.80482,44.29336],[4.80501,44.29191],[4.80472,44.28782],[4.80302,44.28507],[4.8031,44.27999],[4.8035,44.27804],[4.80448,44.27762],[4.80656,44.2732],[4.804,44.26921],[4.8053,44.26873],[4.80617,44.26735],[4.80979,44.26372],[4.81267,44.25772],[4.81234,44.25582],[4.81308,44.25271],[4.81208,44.2512],[4.8136,44.24712],[4.81214,44.24205],[4.81325,44.23731],[4.8141,44.23231],[4.81548,44.23188],[4.81738,44.2297],[4.82126,44.22899],[4.82665,44.22833],[4.82769,44.23047],[4.8295,44.23043],[4.83231,44.2319],[4.83771,44.23646],[4.8408,44.23567],[4.84148,44.23953],[4.84351,44.24178],[4.84622,44.24077],[4.84687,44.24126],[4.85474,44.24522],[4.85709,44.24598],[4.85696,44.24774],[4.8587,44.2486],[4.86407,44.24952],[4.86595,44.24957],[4.86628,44.25295],[4.8674,44.25575],[4.8705,44.25635],[4.87523,44.26004],[4.87905,44.26148],[4.88132,44.26183],[4.88501,44.26171],[4.89038,44.26271],[4.89615,44.26443],[4.90128,44.26428],[4.89994,44.26223],[4.89701,44.25973],[4.89574,44.25769],[4.89927,44.25685],[4.90109,44.25977],[4.90192,44.26017],[4.9129,44.26064],[4.92227,44.25984],[4.92308,44.26113],[4.92841,44.26267],[4.93291,44.26215],[4.9377,44.26626],[4.9427,44.269],[4.95008,44.27114],[4.95989,44.27419],[4.96826,44.27779],[4.97002,44.27916],[4.97401,44.28099],[4.97555,44.28223],[4.97742,44.28249],[4.98145,44.28483],[4.98496,44.28586],[4.99319,44.28594],[4.99712,44.28564],[4.99985,44.28617],[5.00302,44.28608],[5.00554,44.28675],[5.01079,44.29036],[5.01707,44.29268],[5.02124,44.2949],[5.02214,44.29584],[5.02523,44.29695],[5.04021,44.30012],[5.04289,44.30125],[5.04522,44.30126],[5.04803,44.30321],[5.04931,44.30309],[5.05214,44.30437],[5.05573,44.3053],[5.06056,44.30814],[5.06847,44.29981],[5.06814,44.29545],[5.07056,44.28922],[5.07529,44.28605],[5.07651,44.28409],[5.0817,44.28368],[5.08453,44.28264],[5.08647,44.28393],[5.09431,44.2828],[5.09891,44.28179],[5.10412,44.27991],[5.10529,44.27768],[5.10797,44.27725],[5.10789,44.2809],[5.11315,44.28329],[5.11589,44.28431],[5.11915,44.28692],[5.12163,44.288],[5.12373,44.28834],[5.12764,44.29001],[5.13177,44.29279],[5.13751,44.29472],[5.13996,44.29623],[5.14268,44.29694],[5.14687,44.29921],[5.14995,44.30193],[5.15178,44.30221],[5.15477,44.30187],[5.15485,44.30353],[5.15395,44.30589],[5.15063,44.30962],[5.15466,44.31119],[5.15642,44.31142],[5.16007,44.31285],[5.16643,44.31486],[5.16775,44.31483],[5.16992,44.31315],[5.17089,44.3098],[5.17314,44.30951],[5.1737,44.30837],[5.17252,44.30565],[5.17035,44.30391],[5.16929,44.30128],[5.17005,44.29986],[5.16974,44.29766],[5.1686,44.29599],[5.16887,44.29359],[5.16811,44.28992],[5.16163,44.28908],[5.16116,44.28739],[5.15871,44.286],[5.1546,44.28505],[5.15352,44.28381],[5.14973,44.28208],[5.14828,44.27996],[5.14707,44.27557],[5.14682,44.2718],[5.14872,44.26942],[5.15197,44.26812],[5.15484,44.2675],[5.16038,44.26692],[5.16073,44.26655],[5.15965,44.2623],[5.16025,44.25886],[5.15999,44.25725],[5.16237,44.25498],[5.16181,44.25346],[5.16222,44.25053],[5.16155,44.24559],[5.15813,44.24216],[5.15438,44.23964],[5.14947,44.2353],[5.15325,44.23297],[5.1554,44.2334],[5.1549,44.23094],[5.15813,44.22884],[5.16092,44.22976],[5.16169,44.22753],[5.16378,44.22653],[5.16556,44.22473],[5.16656,44.22593],[5.16792,44.22544],[5.17071,44.22343],[5.17218,44.22299],[5.17497,44.22081],[5.17668,44.22018],[5.17931,44.22016],[5.18183,44.21897],[5.18248,44.21977],[5.18467,44.21961],[5.18482,44.2188],[5.18871,44.22028],[5.19152,44.21878],[5.19265,44.21901],[5.19494,44.21828],[5.19836,44.21667],[5.20206,44.21662],[5.20673,44.21376],[5.20919,44.21387],[5.21301,44.21504],[5.21614,44.21505],[5.21785,44.21437],[5.22213,44.21341],[5.22318,44.2146],[5.22541,44.21518],[5.22684,44.21497],[5.22827,44.21344],[5.22851,44.21231],[5.23082,44.21193],[5.2339,44.21343],[5.23593,44.2128],[5.23815,44.21323],[5.2392,44.22055],[5.24045,44.23083],[5.24683,44.23071],[5.24923,44.23137],[5.2523,44.23121],[5.25651,44.23006],[5.25893,44.22864],[5.26203,44.22784],[5.26569,44.22609],[5.26855,44.22544],[5.27755,44.22019],[5.28067,44.2198],[5.28306,44.2188],[5.28506,44.2173],[5.29225,44.21447],[5.29471,44.21251],[5.29683,44.20984],[5.2976,44.20793],[5.3033,44.20539],[5.30379,44.20646],[5.30253,44.20856],[5.30334,44.2099],[5.30679,44.20881],[5.30989,44.20918],[5.31282,44.20816],[5.31575,44.20862],[5.31831,44.20987],[5.32532,44.2073],[5.33012,44.20466],[5.33197,44.20392],[5.33683,44.20353],[5.33668,44.20435],[5.34168,44.2066],[5.34436,44.20886],[5.34797,44.21058],[5.35145,44.21166],[5.35535,44.21456],[5.35991,44.21175],[5.36563,44.2097],[5.37432,44.20573],[5.37796,44.20475],[5.38011,44.20302],[5.38453,44.20118],[5.38108,44.19592],[5.38149,44.19168],[5.38533,44.18743],[5.3863,44.18565],[5.38666,44.18168],[5.38648,44.17691],[5.38366,44.17293],[5.3846,44.16596],[5.38331,44.16375],[5.38276,44.16048],[5.38339,44.15699],[5.38324,44.15528],[5.38582,44.15558],[5.38805,44.1539],[5.39053,44.15342],[5.39247,44.15225],[5.39485,44.1524],[5.39661,44.15196],[5.40055,44.15257],[5.40121,44.15309],[5.40567,44.15347],[5.40853,44.15308],[5.41036,44.15353],[5.41282,44.15485],[5.41677,44.15511],[5.42166,44.15083],[5.42391,44.14929],[5.42839,44.14912],[5.42993,44.15087],[5.43244,44.15221],[5.43576,44.15225],[5.43567,44.15085],[5.43766,44.14923],[5.4366,44.148],[5.4374,44.14685],[5.43754,44.14455],[5.43656,44.13998],[5.43919,44.13793],[5.44302,44.13827],[5.44442,44.13733],[5.44757,44.13675],[5.44728,44.136],[5.44978,44.12877],[5.44873,44.12564],[5.45058,44.12154],[5.4542,44.12005],[5.45472,44.11923],[5.46123,44.11814],[5.46524,44.11844],[5.47394,44.11852],[5.48259,44.11779],[5.48449,44.1171],[5.49471,44.11538],[5.49879,44.11572],[5.49845,44.1092],[5.49909,44.10728],[5.49898,44.105],[5.49695,44.10239],[5.50041,44.10031],[5.50028,44.09329],[5.49919,44.09165],[5.49864,44.08942],[5.49922,44.08278],[5.49836,44.08069],[5.49801,44.07521],[5.49858,44.07168],[5.50208,44.06614],[5.50264,44.06344],[5.50921,44.06386],[5.5137,44.06365],[5.51643,44.06325],[5.52193,44.06458],[5.52343,44.06464],[5.52806,44.06599],[5.53188,44.06737],[5.53637,44.06846],[5.53905,44.06816],[5.5446,44.06989],[5.54499,44.06842],[5.5441,44.06582],[5.54233,44.06311],[5.5424,44.06095],[5.54357,44.05723],[5.54356,44.05561],[5.5445,44.05345],[5.54518,44.04992],[5.54412,44.04645],[5.54431,44.04526],[5.54412,44.03843],[5.54366,44.03663],[5.54447,44.03351],[5.54364,44.0316],[5.54363,44.02596],[5.54163,44.02224],[5.54045,44.02124],[5.53598,44.01357],[5.53588,44.01299],[5.53168,44.01017],[5.5313,44.00901],[5.5268,44.00635],[5.5264,44.00488],[5.52457,44.00213],[5.52435,43.99809],[5.52362,43.99612],[5.51942,43.99454],[5.51765,43.9917],[5.51806,43.99011],[5.51781,43.98773],[5.51532,43.97969],[5.51317,43.97336],[5.51269,43.9689],[5.51222,43.96708],[5.51009,43.96344],[5.50766,43.9577],[5.50909,43.95514],[5.5092,43.95167],[5.51165,43.94845],[5.51267,43.94539],[5.51563,43.94469],[5.52093,43.94464],[5.52688,43.94753],[5.53002,43.94568],[5.53345,43.94451],[5.53582,43.94327],[5.54499,43.93905],[5.54551,43.93948],[5.55324,43.94161],[5.55625,43.94198],[5.55967,43.94286],[5.56456,43.94242],[5.56608,43.94174],[5.56763,43.94264],[5.56892,43.94225],[5.57,43.94041],[5.56808,43.93817],[5.56789,43.93696],[5.57303,43.932],[5.57645,43.9296],[5.5806,43.92547],[5.58042,43.92448],[5.58151,43.92302],[5.58095,43.91994],[5.58159,43.91508],[5.59038,43.91646],[5.59434,43.91683],[5.60047,43.91634],[5.60491,43.9155],[5.60584,43.91641],[5.60823,43.91477],[5.60713,43.91377],[5.60545,43.91071],[5.60399,43.90895],[5.59989,43.90551],[5.59767,43.90287],[5.59756,43.89846],[5.59514,43.8943],[5.59311,43.89233],[5.59079,43.8909],[5.59118,43.89008],[5.59,43.88796],[5.59029,43.88723],[5.5872,43.8856],[5.58682,43.88422],[5.58719,43.88169],[5.58567,43.88024],[5.58411,43.88028],[5.58341,43.87882],[5.58379,43.87678],[5.5816,43.87541],[5.57796,43.87249],[5.57433,43.86764],[5.57322,43.86537],[5.57348,43.86338],[5.5712,43.86179],[5.56832,43.86232],[5.56686,43.86186],[5.56515,43.86028],[5.56353,43.85803],[5.56133,43.85746],[5.55659,43.85499],[5.55506,43.85337],[5.55316,43.85261],[5.55174,43.85139],[5.54862,43.85148],[5.54884,43.84391],[5.54849,43.83856],[5.54872,43.8326],[5.54681,43.82932],[5.54585,43.82566],[5.54429,43.81835],[5.54625,43.81697],[5.5484,43.81672],[5.55152,43.81755],[5.55786,43.82087],[5.55958,43.82148],[5.56428,43.81973],[5.56452,43.82112],[5.56688,43.82425],[5.56733,43.82707],[5.57056,43.82915],[5.5746,43.83029],[5.5782,43.82992],[5.58479,43.82765],[5.58892,43.82701],[5.59129,43.82941],[5.59543,43.82889],[5.60062,43.82603],[5.60566,43.82823],[5.61127,43.82843],[5.61459,43.82776],[5.61587,43.82916],[5.6184,43.83012],[5.62183,43.82925],[5.62379,43.83072],[5.6277,43.83093],[5.62908,43.82976],[5.6321,43.82818],[5.63409,43.82818],[5.63739,43.82727],[5.6401,43.8276],[5.65067,43.82522],[5.65445,43.82511],[5.65451,43.82393],[5.65575,43.82277],[5.65644,43.81937],[5.6584,43.81693],[5.66242,43.81407],[5.66796,43.80949],[5.67448,43.80736],[5.67524,43.80621],[5.67463,43.80448],[5.68003,43.79869],[5.68033,43.79742],[5.68257,43.7928],[5.68395,43.7919],[5.68484,43.79017],[5.68433,43.78873],[5.68573,43.78721],[5.68991,43.7852],[5.69266,43.78444],[5.69708,43.78431],[5.70058,43.78358],[5.70496,43.77954],[5.70811,43.77944],[5.71195,43.7813],[5.71356,43.78112],[5.71289,43.77838],[5.71388,43.77264],[5.71378,43.76963],[5.71425,43.7648],[5.71506,43.76039],[5.71695,43.75553],[5.7257,43.75184],[5.72637,43.75051],[5.72888,43.75008],[5.7301,43.7486],[5.73412,43.74698],[5.73532,43.74732],[5.73849,43.74636],[5.73938,43.74548],[5.74124,43.74542],[5.74301,43.74397],[5.74587,43.7429],[5.74916,43.74055],[5.75094,43.73829],[5.75314,43.73647],[5.75669,43.73156],[5.75733,43.72941],[5.75668,43.72816],[5.75365,43.72462],[5.74971,43.7209],[5.74746,43.71961],[5.74137,43.71831],[5.73902,43.71743],[5.73695,43.716],[5.73093,43.70943],[5.72908,43.70768],[5.72441,43.70179],[5.72223,43.69964],[5.71888,43.69519],[5.71735,43.69353],[5.71413,43.69133],[5.71021,43.69],[5.70523,43.68992],[5.69604,43.69114],[5.68649,43.6922],[5.68282,43.69283],[5.6762,43.69292],[5.67359,43.69366],[5.67103,43.69252],[5.66975,43.69114],[5.66442,43.68801],[5.66051,43.68715],[5.65752,43.68576],[5.65609,43.68447],[5.65246,43.67993],[5.65015,43.67842],[5.64775,43.6758],[5.64495,43.67422],[5.64231,43.67222],[5.64021,43.67181],[5.63545,43.66908],[5.63149,43.66735],[5.62918,43.6672],[5.61744,43.66484],[5.6136,43.66374],[5.60845,43.66042],[5.60694,43.65869],[5.5954,43.65957],[5.5877,43.6613],[5.57814,43.66174],[5.57479,43.66206],[5.56039,43.66161],[5.55807,43.66132],[5.54983,43.65975],[5.54476,43.66071],[5.54339,43.66066],[5.53269,43.65898],[5.53145,43.65901],[5.52391,43.66063],[5.51911,43.66148],[5.51226,43.66329],[5.5094,43.66427],[5.50144,43.66639],[5.48808,43.66765],[5.4866,43.66842],[5.47619,43.67078],[5.4725,43.67264],[5.46534,43.67455],[5.45723,43.67752],[5.45263,43.67859],[5.45046,43.67959],[5.44529,43.68009],[5.44424,43.67995],[5.43758,43.68171],[5.42886,43.68559],[5.42421,43.68684],[5.41675,43.69034],[5.41279,43.69292],[5.40673,43.69569],[5.40184,43.69718],[5.39707,43.69888],[5.39087,43.70144],[5.3828,43.70355],[5.37704,43.70627],[5.37348,43.7083],[5.36684,43.71027],[5.36409,43.71138],[5.35598,43.71404],[5.34102,43.7197],[5.33619,43.72231],[5.3247,43.72999],[5.31724,43.736],[5.31572,43.73649],[5.30796,43.73796],[5.29922,43.73832],[5.29452,43.73889],[5.29227,43.73958],[5.27527,43.74128],[5.2722,43.74204],[5.25571,43.74656],[5.24424,43.74722],[5.22999,43.74767],[5.2293,43.74756],[5.21662,43.7436],[5.18797,43.7351],[5.17331,43.73881],[5.16219,43.74343],[5.13178,43.75557],[5.10682,43.76565],[5.08731,43.77346],[5.07975,43.77671],[5.07058,43.78017],[5.05667,43.78577],[5.04966,43.78873],[5.04635,43.79106],[5.04475,43.7929],[5.04364,43.79595],[5.04306,43.80091],[5.04314,43.80393],[5.04248,43.80745],[5.04115,43.81095],[5.03705,43.8178],[5.03272,43.82403],[5.02953,43.82779],[5.02399,43.83023],[5.00399,43.84074],[4.99609,43.84606],[4.9872,43.85482],[4.97898,43.86316],[4.97546,43.86644],[4.96631,43.87165],[4.94582,43.87807],[4.93807,43.88133],[4.93594,43.88198],[4.92586,43.88649],[4.92388,43.88685],[4.90816,43.88626],[4.90232,43.88793],[4.88638,43.89941],[4.88523,43.90015],[4.8788,43.9025],[4.85309,43.91138],[4.82926,43.91244],[4.82174,43.91283],[4.81097,43.91428],[4.7945,43.91673],[4.75204,43.92261],[4.73906,43.92406],[4.74255,43.92775],[4.74449,43.92933],[4.75,43.93218],[4.75901,43.93459],[4.76153,43.93492],[4.76878,43.9338],[4.77306,43.9357],[4.77436,43.93587],[4.77902,43.93789],[4.78247,43.94144],[4.78616,43.94409],[4.78897,43.94733],[4.79278,43.95378],[4.79716,43.95672],[4.808,43.96003],[4.81156,43.9618],[4.81402,43.964],[4.81506,43.96763],[4.81381,43.97071],[4.81117,43.97464],[4.81015,43.97704],[4.81012,43.97957],[4.81126,43.98562],[4.81247,43.98766],[4.81598,43.9888],[4.8196,43.98838],[4.82996,43.98558],[4.83199,43.98526],[4.83766,43.98519],[4.84211,43.98647],[4.84438,43.98937],[4.84487,43.9916],[4.84472,43.99379],[4.84555,43.99668],[4.84422,44.0009],[4.84423,44.00541],[4.84334,44.00986],[4.8409,44.01293],[4.83768,44.01494],[4.83123,44.01599],[4.82319,44.01603],[4.82115,44.01647],[4.81838,44.01905],[4.81717,44.0259],[4.81738,44.02826],[4.81617,44.03214],[4.81342,44.03519],[4.80988,44.03788],[4.80801,44.03973],[4.79891,44.04608],[4.7922,44.04997],[4.78912,44.0522],[4.78763,44.05402],[4.7872,44.05575],[4.78828,44.06091],[4.78844,44.06336],[4.78798,44.06505],[4.78508,44.06742],[4.78174,44.06842],[4.76943,44.07152],[4.76722,44.07234],[4.76325,44.07476],[4.76195,44.07522],[4.75956,44.07507],[4.75785,44.07725],[4.76052,44.07894],[4.75975,44.08164],[4.76086,44.0863],[4.7583,44.08792],[4.75487,44.08831],[4.74884,44.08723],[4.73895,44.08388],[4.7359,44.08264],[4.73013,44.07903],[4.72587,44.07844],[4.72255,44.07968],[4.72063,44.08179],[4.71995,44.08346],[4.71955,44.09031],[4.71879,44.0925],[4.71446,44.09632],[4.70746,44.10367],[4.70607,44.10775],[4.7062,44.10994],[4.70701,44.11368],[4.71074,44.11846],[4.71121,44.12233],[4.71161,44.12953],[4.7117,44.13474],[4.71748,44.14151],[4.7189,44.1445],[4.7191,44.14838],[4.7182,44.15238],[4.71722,44.15857],[4.71707,44.16109],[4.71612,44.16597],[4.71794,44.17191],[4.71807,44.17359],[4.71638,44.17672],[4.71977,44.17714],[4.72006,44.17982],[4.72191,44.18378],[4.72207,44.18742],[4.71993,44.18904],[4.71496,44.19104],[4.71321,44.19143],[4.7099,44.19146],[4.70578,44.19279],[4.70384,44.19765],[4.70444,44.20057],[4.70823,44.20473],[4.70988,44.208],[4.70894,44.21191],[4.70655,44.21443],[4.70181,44.21607],[4.69417,44.21543],[4.68364,44.21242],[4.68016,44.21213],[4.67665,44.21257],[4.67425,44.21402],[4.67267,44.21681],[4.67272,44.21816],[4.67397,44.22114],[4.67844,44.22943],[4.67856,44.23118],[4.67786,44.23412],[4.67484,44.23855],[4.67315,44.23989],[4.66635,44.24377],[4.6619,44.2471],[4.65407,44.25434],[4.65338,44.25662],[4.65008,44.26131],[4.64918,44.26358],[4.64922,44.27036]]]]}}]}